{"type": "FeatureCollection", "features": [{"type": "Feature", "geometry": {"type": "LineString", "coordinates": [[23.736097, 37.97617], [23.735992, 37.976173], [23.73597, 37.97617], [23.735935, 37.976162], [23.735903, 37.976147], [23.735796, 37.976105]]}, "properties": {"u": 954712407, "v": 2511789008, "highway": "primary_link", "lanes": "3", "maxspeed": "['30', None]", "name": "0", "oneway": "yes", "surface": "asphalt", "length": 28.153}}, {"type": "Feature", "geometry": {"type": "LineString", "coordinates": [[23.736097, 37.97617], [23.736023, 37.976215], [23.735971, 37.97625], [23.735956, 37.976265], [23.735947, 37.976273], [23.735903, 37.976318], [23.73588, 37.976364], [23.735857, 37.976421], [23.735844, 37.976501]]}, "properties": {"u": 954712407, "v": 250691827, "highway": "primary_link", "lanes": "1", "maxspeed": "", "name": "1", "oneway": "yes", "surface": "asphalt", "length": 45.040000000000006}}, {"type": "Feature", "geometry": {"type": "LineString", "coordinates": [[23.736097, 37.97617], [23.736813, 37.976078], [23.737455, 37.975994], [23.737511, 37.975986], [23.737617, 37.975975]]}, "properties": {"u": 954712407, "v": 6220792258, "highway": "primary", "lanes": "4", "maxspeed": "", "name": "2", "oneway": "no", "surface": "asphalt", "length": 134.992}}, {"type": "Feature", "geometry": {"type": "LineString", "coordinates": [[23.725925, 37.985958], [23.725851, 37.985661], [23.725788, 37.985413], [23.725784, 37.985397]]}, "properties": {"u": 95663376, "v": 95663377, "highway": "tertiary", "lanes": "2", "maxspeed": "", "name": "3", "oneway": "yes", "surface": "asphalt", "length": 63.569}}, {"type": "Feature", "geometry": {"type": "LineString", "coordinates": [[23.725925, 37.985958], [23.725302, 37.986053], [23.725245, 37.986065], [23.725189, 37.986073]]}, "properties": {"u": 95663376, "v": 95663493, "highway": "residential", "lanes": "", "maxspeed": "", "name": "4", "oneway": "yes", "surface": "asphalt", "length": 65.775}}, {"type": "Feature", "geometry": {"type": "LineString", "coordinates": [[23.725784, 37.985397], [23.725666, 37.98494]]}, "properties": {"u": 95663377, "v": 11256819883, "highway": "tertiary", "lanes": "2", "maxspeed": "", "name": "5", "oneway": "yes", "surface": "asphalt", "length": 51.945}}, {"type": "Feature", "geometry": {"type": "LineString", "coordinates": [[23.725784, 37.985397], [23.726978, 37.985222], [23.727049, 37.98521]]}, "properties": {"u": 95663377, "v": 95663386, "highway": "residential", "lanes": "", "maxspeed": "", "name": "6", "oneway": "yes", "surface": "asphalt", "length": 112.761}}, {"type": "Feature", "geometry": {"type": "LineString", "coordinates": [[23.725666, 37.98494], [23.726173, 37.984859]]}, "properties": {"u": 11256819883, "v": 11256819882, "highway": "residential", "lanes": "", "maxspeed": "", "name": "7", "oneway": "", "surface": "", "length": 45.349}}, {"type": "Feature", "geometry": {"type": "LineString", "coordinates": [[23.725666, 37.98494], [23.725594, 37.984661], [23.725561, 37.984535]]}, "properties": {"u": 11256819883, "v": 250720872, "highway": "tertiary", "lanes": "2", "maxspeed": "", "name": "8", "oneway": "yes", "surface": "asphalt", "length": 45.893}}, {"type": "Feature", "geometry": {"type": "LineString", "coordinates": [[23.725561, 37.984535], [23.725525, 37.984543], [23.725443, 37.984558], [23.724924, 37.984642], [23.724848, 37.984653], [23.725042, 37.98547], [23.725052, 37.985504]]}, "properties": {"u": 250720872, "v": 95663389, "highway": "['primary', 'residential']", "lanes": "['2', '1']", "maxspeed": "[None, '50']", "name": "9", "oneway": "yes", "surface": "asphalt", "length": 160.165}}, {"type": "Feature", "geometry": {"type": "LineString", "coordinates": [[23.724924, 37.986115], [23.724823, 37.986126], [23.724773, 37.986134]]}, "properties": {"u": 95663375, "v": 95663504, "highway": "residential", "lanes": "", "maxspeed": "", "name": "10", "oneway": "yes", "surface": "asphalt", "length": 13.378}}, {"type": "Feature", "geometry": {"type": "LineString", "coordinates": [[23.724924, 37.986115], [23.725086, 37.986206], [23.7251, 37.986217], [23.725235, 37.986294]]}, "properties": {"u": 95663375, "v": 844627879, "highway": "secondary", "lanes": "4", "maxspeed": "", "name": "11", "oneway": "", "surface": "asphalt", "length": 33.797}}, {"type": "Feature", "geometry": {"type": "LineString", "coordinates": [[23.724924, 37.986115], [23.724827, 37.986057], [23.724806, 37.986046], [23.72468, 37.98597]]}, "properties": {"u": 95663375, "v": 6693568141, "highway": "secondary", "lanes": "4", "maxspeed": "", "name": "12", "oneway": "", "surface": "asphalt", "length": 26.791}}, {"type": "Feature", "geometry": {"type": "LineString", "coordinates": [[23.724773, 37.986134], [23.723373, 37.986347], [23.723326, 37.986355]]}, "properties": {"u": 95663504, "v": 95663374, "highway": "residential", "lanes": "", "maxspeed": "", "name": "13", "oneway": "yes", "surface": "asphalt", "length": 129.237}}, {"type": "Feature", "geometry": {"type": "LineString", "coordinates": [[23.724773, 37.986134], [23.72471, 37.986012], [23.72468, 37.98597]]}, "properties": {"u": 95663504, "v": 6693568141, "highway": "tertiary", "lanes": "1", "maxspeed": "", "name": "14", "oneway": "yes", "surface": "asphalt", "length": 20.03}}, {"type": "Feature", "geometry": {"type": "LineString", "coordinates": [[23.723326, 37.986355], [23.722984, 37.986408]]}, "properties": {"u": 95663374, "v": 633562900, "highway": "residential", "lanes": "", "maxspeed": "", "name": "15", "oneway": "yes", "surface": "asphalt", "length": 30.505}}, {"type": "Feature", "geometry": {"type": "LineString", "coordinates": [[23.723326, 37.986355], [23.723478, 37.986885]]}, "properties": {"u": 95663374, "v": 95663419, "highway": "residential", "lanes": "", "maxspeed": "30", "name": "16", "oneway": "yes", "surface": "asphalt", "length": 60.458}}, {"type": "Feature", "geometry": {"type": "LineString", "coordinates": [[23.722984, 37.986408], [23.72298, 37.986954]]}, "properties": {"u": 633562900, "v": 633562902, "highway": "residential", "lanes": "", "maxspeed": "", "name": "17", "oneway": "", "surface": "asphalt", "length": 60.658}}, {"type": "Feature", "geometry": {"type": "LineString", "coordinates": [[23.724121, 37.985645], [23.72468, 37.98597]]}, "properties": {"u": 31179468, "v": 6693568141, "highway": "secondary", "lanes": "4", "maxspeed": "", "name": "18", "oneway": "", "surface": "asphalt", "length": 60.818}}, {"type": "Feature", "geometry": {"type": "LineString", "coordinates": [[23.724121, 37.985645], [23.724297, 37.985619], [23.725052, 37.985504]]}, "properties": {"u": 31179468, "v": 95663389, "highway": "residential", "lanes": "", "maxspeed": "", "name": "19", "oneway": "yes", "surface": "asphalt", "length": 83.071}}, {"type": "Feature", "geometry": {"type": "LineString", "coordinates": [[23.724121, 37.985645], [23.723408, 37.985748], [23.723255, 37.985771], [23.723232, 37.985775], [23.723162, 37.985786]]}, "properties": {"u": 31179468, "v": 5630842135, "highway": "secondary", "lanes": "4", "maxspeed": "", "name": "20", "oneway": "no", "surface": "asphalt", "length": 85.535}}, {"type": "Feature", "geometry": {"type": "LineString", "coordinates": [[23.725052, 37.985504], [23.725784, 37.985397]]}, "properties": {"u": 95663389, "v": 95663377, "highway": "residential", "lanes": "", "maxspeed": "", "name": "21", "oneway": "yes", "surface": "asphalt", "length": 65.279}}, {"type": "Feature", "geometry": {"type": "LineString", "coordinates": [[23.725052, 37.985504], [23.725178, 37.986031], [23.725189, 37.986073]]}, "properties": {"u": 95663389, "v": 95663493, "highway": "residential", "lanes": "1", "maxspeed": "", "name": "22", "oneway": "yes", "surface": "asphalt", "length": 64.34}}, {"type": "Feature", "geometry": {"type": "LineString", "coordinates": [[23.727049, 37.98521], [23.727081, 37.985207], [23.72776, 37.985107], [23.728128, 37.985054], [23.728233, 37.985035]]}, "properties": {"u": 95663386, "v": 95663423, "highway": "residential", "lanes": "", "maxspeed": "", "name": "23", "oneway": "yes", "surface": "asphalt", "length": 105.635}}, {"type": "Feature", "geometry": {"type": "LineString", "coordinates": [[23.727049, 37.98521], [23.727043, 37.985188], [23.726944, 37.984783]]}, "properties": {"u": 95663386, "v": 11256819886, "highway": "tertiary", "lanes": "2", "maxspeed": "", "name": "24", "oneway": "yes", "surface": "asphalt", "length": 48.389}}, {"type": "Feature", "geometry": {"type": "LineString", "coordinates": [[23.728233, 37.985035], [23.728346, 37.985489], [23.728365, 37.985561], [23.728371, 37.985584]]}, "properties": {"u": 95663423, "v": 95663422, "highway": "primary", "lanes": "3", "maxspeed": "", "name": "25", "oneway": "yes", "surface": "asphalt", "length": 62.256}}, {"type": "Feature", "geometry": {"type": "LineString", "coordinates": [[23.726683, 37.987171], [23.726732, 37.987129]]}, "properties": {"u": 31179466, "v": 962356923, "highway": "primary", "lanes": "2", "maxspeed": "", "name": "26", "oneway": "yes", "surface": "asphalt", "length": 6.376}}, {"type": "Feature", "geometry": {"type": "LineString", "coordinates": [[23.726683, 37.987171], [23.726593, 37.987122], [23.726452, 37.987034]]}, "properties": {"u": 31179466, "v": 97834761, "highway": "secondary", "lanes": "2", "maxspeed": "", "name": "27", "oneway": "yes", "surface": "asphalt", "length": 25.352}}, {"type": "Feature", "geometry": {"type": "LineString", "coordinates": [[23.726732, 37.987129], [23.726801, 37.987171]]}, "properties": {"u": 962356923, "v": 962356785, "highway": "primary", "lanes": "2", "maxspeed": "", "name": "28", "oneway": "yes", "surface": "asphalt", "length": 7.615}}, {"type": "Feature", "geometry": {"type": "LineString", "coordinates": [[23.726732, 37.987129], [23.726789, 37.987087], [23.726934, 37.986961], [23.726957, 37.986935], [23.726976, 37.986904], [23.727144, 37.986553]]}, "properties": {"u": 962356923, "v": 962356608, "highway": "primary", "lanes": "2", "maxspeed": "", "name": "29", "oneway": "yes", "surface": "asphalt", "length": 74.82300000000001}}, {"type": "Feature", "geometry": {"type": "LineString", "coordinates": [[23.730471, 37.988655], [23.73035, 37.988674], [23.729609, 37.988785], [23.72958, 37.988789], [23.7295, 37.9888]]}, "properties": {"u": 97788213, "v": 95663402, "highway": "tertiary", "lanes": "2", "maxspeed": "", "name": "30", "oneway": "yes", "surface": "asphalt", "length": 86.59600000000002}}, {"type": "Feature", "geometry": {"type": "LineString", "coordinates": [[23.730471, 37.988655], [23.730444, 37.988544], [23.730413, 37.988419], [23.730312, 37.988014], [23.730268, 37.987835], [23.730242, 37.98772], [23.73024, 37.987545]]}, "properties": {"u": 97788213, "v": 97788195, "highway": "primary", "lanes": "2", "maxspeed": "", "name": "31", "oneway": "yes", "surface": "asphalt", "length": 125.356}}, {"type": "Feature", "geometry": {"type": "LineString", "coordinates": [[23.7295, 37.9888], [23.729609, 37.988865], [23.730228, 37.989227], [23.73027, 37.989254], [23.730333, 37.989292]]}, "properties": {"u": 95663402, "v": 961530806, "highway": "primary", "lanes": "3", "maxspeed": "", "name": "32", "oneway": "yes", "surface": "asphalt", "length": 91.272}}, {"type": "Feature", "geometry": {"type": "LineString", "coordinates": [[23.7295, 37.9888], [23.729311, 37.988827], [23.729292, 37.988831], [23.729191, 37.988846]]}, "properties": {"u": 95663402, "v": 95663400, "highway": "tertiary", "lanes": "2", "maxspeed": "", "name": "33", "oneway": "yes", "surface": "asphalt", "length": 27.557}}, {"type": "Feature", "geometry": {"type": "LineString", "coordinates": [[23.729992, 37.986462], [23.729845, 37.986488], [23.728745, 37.98666], [23.728645, 37.986675]]}, "properties": {"u": 516020524, "v": 962356679, "highway": "primary", "lanes": "2", "maxspeed": "", "name": "34", "oneway": "yes", "surface": "asphalt", "length": 120.386}}, {"type": "Feature", "geometry": {"type": "LineString", "coordinates": [[23.729992, 37.986462], [23.729952, 37.986286], [23.729916, 37.986126], [23.729876, 37.985954]]}, "properties": {"u": 516020524, "v": 250714052, "highway": "primary", "lanes": "3", "maxspeed": "", "name": "35", "oneway": "yes", "surface": "asphalt", "length": 57.329}}, {"type": "Feature", "geometry": {"type": "LineString", "coordinates": [[23.728645, 37.986675], [23.728537, 37.986694], [23.727539, 37.986858], [23.727509, 37.986866], [23.727457, 37.986874]]}, "properties": {"u": 962356679, "v": 95663426, "highway": "primary", "lanes": "1", "maxspeed": "", "name": "36", "oneway": "yes", "surface": "asphalt", "length": 106.465}}, {"type": "Feature", "geometry": {"type": "LineString", "coordinates": [[23.728645, 37.986675], [23.728765, 37.98716], [23.728775, 37.987194], [23.728783, 37.987225]]}, "properties": {"u": 962356679, "v": 95663454, "highway": "primary", "lanes": "3", "maxspeed": "", "name": "37", "oneway": "yes", "surface": "asphalt", "length": 62.257000000000005}}, {"type": "Feature", "geometry": {"type": "LineString", "coordinates": [[23.727715, 37.987926], [23.727615, 37.987942], [23.727028, 37.988029], [23.726767, 37.988071], [23.726677, 37.988083]]}, "properties": {"u": 95663463, "v": 95663472, "highway": "secondary", "lanes": "2", "maxspeed": "", "name": "38", "oneway": "yes", "surface": "asphalt", "length": 92.586}}, {"type": "Feature", "geometry": {"type": "LineString", "coordinates": [[23.727715, 37.987926], [23.727709, 37.9879], [23.727661, 37.987709]]}, "properties": {"u": 95663463, "v": 95663461, "highway": "tertiary", "lanes": "2", "maxspeed": "", "name": "39", "oneway": "yes", "surface": "asphalt", "length": 24.628}}, {"type": "Feature", "geometry": {"type": "LineString", "coordinates": [[23.726677, 37.988083], [23.726702, 37.988583]]}, "properties": {"u": 95663472, "v": 635132981, "highway": "primary", "lanes": "2", "maxspeed": "", "name": "40", "oneway": "yes", "surface": "asphalt", "length": 55.609}}, {"type": "Feature", "geometry": {"type": "LineString", "coordinates": [[23.725069, 37.988819], [23.725077, 37.988811], [23.725111, 37.988773], [23.72514, 37.988739]]}, "properties": {"u": 95663490, "v": 97834829, "highway": "secondary", "lanes": "2", "maxspeed": "30", "name": "41", "oneway": "yes", "surface": "asphalt", "length": 10.847}}, {"type": "Feature", "geometry": {"type": "LineString", "coordinates": [[23.725069, 37.988819], [23.725029, 37.988873], [23.725, 37.988911], [23.724972, 37.988949]]}, "properties": {"u": 95663490, "v": 97839373, "highway": "secondary", "lanes": "2", "maxspeed": "30", "name": "42", "oneway": "no", "surface": "asphalt", "length": 16.752}}, {"type": "Feature", "geometry": {"type": "LineString", "coordinates": [[23.72514, 37.988739], [23.725428, 37.988415], [23.725435, 37.988407], [23.725733, 37.988045]]}, "properties": {"u": 97834829, "v": 97834834, "highway": "secondary", "lanes": "2", "maxspeed": "30", "name": "43", "oneway": "yes", "surface": "asphalt", "length": 93.09}}, {"type": "Feature", "geometry": {"type": "LineString", "coordinates": [[23.72514, 37.988739], [23.725126, 37.988693], [23.725035, 37.988346], [23.724989, 37.988174]]}, "properties": {"u": 97834829, "v": 97834824, "highway": "residential", "lanes": "", "maxspeed": "", "name": "44", "oneway": "yes", "surface": "asphalt", "length": 64.15299999999999}}, {"type": "Feature", "geometry": {"type": "LineString", "coordinates": [[23.725733, 37.988045], [23.72578, 37.987999], [23.725838, 37.987946], [23.725895, 37.987888]]}, "properties": {"u": 97834834, "v": 95663474, "highway": "secondary", "lanes": "2", "maxspeed": "30", "name": "45", "oneway": "yes", "surface": "asphalt", "length": 22.46}}, {"type": "Feature", "geometry": {"type": "LineString", "coordinates": [[23.725895, 37.987888], [23.726507, 37.987328]]}, "properties": {"u": 95663474, "v": 962356740, "highway": "primary", "lanes": "2", "maxspeed": "", "name": "46", "oneway": "yes", "surface": "asphalt", "length": 82.262}}, {"type": "Feature", "geometry": {"type": "LineString", "coordinates": [[23.725895, 37.987888], [23.725857, 37.987823], [23.725836, 37.987785]]}, "properties": {"u": 95663474, "v": 5370319353, "highway": "tertiary", "lanes": "1", "maxspeed": "", "name": "47", "oneway": "yes", "surface": "asphalt", "length": 12.571000000000002}}, {"type": "Feature", "geometry": {"type": "LineString", "coordinates": [[23.727247, 37.987465], [23.727661, 37.987709]]}, "properties": {"u": 3879024939, "v": 95663461, "highway": "primary", "lanes": "4", "maxspeed": "", "name": "48", "oneway": "no", "surface": "asphalt", "length": 45.307}}, {"type": "Feature", "geometry": {"type": "LineString", "coordinates": [[23.72715, 37.987408], [23.727247, 37.987465]]}, "properties": {"u": 3879024939, "v": 3879024943, "highway": "primary", "lanes": "4", "maxspeed": "", "name": "49", "oneway": "no", "surface": "asphalt", "length": 10.638}}, {"type": "Feature", "geometry": {"type": "LineString", "coordinates": [[23.727247, 37.987465], [23.727543, 37.987419], [23.727589, 37.987411]]}, "properties": {"u": 3879024939, "v": 95663433, "highway": "residential", "lanes": "", "maxspeed": "", "name": "50", "oneway": "yes", "surface": "asphalt", "length": 30.504}}, {"type": "Feature", "geometry": {"type": "LineString", "coordinates": [[23.727589, 37.987411], [23.728693, 37.98724], [23.728783, 37.987225]]}, "properties": {"u": 95663433, "v": 95663454, "highway": "residential", "lanes": "", "maxspeed": "", "name": "51", "oneway": "yes", "surface": "asphalt", "length": 106.685}}, {"type": "Feature", "geometry": {"type": "LineString", "coordinates": [[23.727589, 37.987411], [23.727472, 37.986938], [23.727467, 37.986912], [23.727457, 37.986874]]}, "properties": {"u": 95663433, "v": 95663426, "highway": "tertiary", "lanes": "1", "maxspeed": "", "name": "52", "oneway": "yes", "surface": "asphalt", "length": 60.911}}, {"type": "Feature", "geometry": {"type": "LineString", "coordinates": [[23.728783, 37.987225], [23.728889, 37.987209], [23.730001, 37.987038], [23.73012, 37.987019]]}, "properties": {"u": 95663454, "v": 97788192, "highway": "residential", "lanes": "", "maxspeed": "", "name": "53", "oneway": "yes", "surface": "asphalt", "length": 119.39600000000002}}, {"type": "Feature", "geometry": {"type": "LineString", "coordinates": [[23.728783, 37.987225], [23.728893, 37.987667], [23.728901, 37.987698], [23.728912, 37.987747]]}, "properties": {"u": 95663454, "v": 95663467, "highway": "primary", "lanes": "3", "maxspeed": "", "name": "54", "oneway": "yes", "surface": "asphalt", "length": 59.214}}, {"type": "Feature", "geometry": {"type": "LineString", "coordinates": [[23.73012, 37.987019], [23.730982, 37.986885], [23.731024, 37.986877]]}, "properties": {"u": 97788192, "v": 6356544246, "highway": "residential", "lanes": "", "maxspeed": "", "name": "55", "oneway": "yes", "surface": "asphalt", "length": 80.774}}, {"type": "Feature", "geometry": {"type": "LineString", "coordinates": [[23.73012, 37.987019], [23.730106, 37.986958], [23.730007, 37.98653], [23.729992, 37.986462]]}, "properties": {"u": 97788192, "v": 516020524, "highway": "primary", "lanes": "3", "maxspeed": "", "name": "56", "oneway": "yes", "surface": "asphalt", "length": 62.934}}, {"type": "Feature", "geometry": {"type": "LineString", "coordinates": [[23.731024, 37.986877], [23.731894, 37.98674], [23.731749, 37.986176]]}, "properties": {"u": 6356544246, "v": 97788686, "highway": "residential", "lanes": "", "maxspeed": "", "name": "57", "oneway": "yes", "surface": "asphalt", "length": 141.789}}, {"type": "Feature", "geometry": {"type": "LineString", "coordinates": [[23.731024, 37.986877], [23.730898, 37.986366], [23.730888, 37.986324]]}, "properties": {"u": 6356544246, "v": 97788594, "highway": "residential", "lanes": "", "maxspeed": "", "name": "58", "oneway": "yes", "surface": "asphalt", "length": 62.64}}, {"type": "Feature", "geometry": {"type": "LineString", "coordinates": [[23.726131, 37.98682], [23.726063, 37.986515]]}, "properties": {"u": 95663527, "v": 95663492, "highway": "tertiary", "lanes": "1", "maxspeed": "", "name": "59", "oneway": "yes", "surface": "asphalt", "length": 34.463}}, {"type": "Feature", "geometry": {"type": "LineString", "coordinates": [[23.725702, 37.986568], [23.726131, 37.98682]]}, "properties": {"u": 95663527, "v": 95663418, "highway": "secondary", "lanes": "4", "maxspeed": "", "name": "60", "oneway": "no", "surface": "asphalt", "length": 46.886}}, {"type": "Feature", "geometry": {"type": "LineString", "coordinates": [[23.726131, 37.98682], [23.726326, 37.986935], [23.726364, 37.986954]]}, "properties": {"u": 95663527, "v": 8253823131, "highway": "secondary", "lanes": "4", "maxspeed": "", "name": "61", "oneway": "no", "surface": "asphalt", "length": 25.234}}, {"type": "Feature", "geometry": {"type": "LineString", "coordinates": [[23.726063, 37.986515], [23.725937, 37.985996], [23.725925, 37.985958]]}, "properties": {"u": 95663492, "v": 95663376, "highway": "tertiary", "lanes": "1", "maxspeed": "", "name": "62", "oneway": "yes", "surface": "asphalt", "length": 63.092}}, {"type": "Feature", "geometry": {"type": "LineString", "coordinates": [[23.726063, 37.986515], [23.725849, 37.986546], [23.725702, 37.986568]]}, "properties": {"u": 95663492, "v": 95663418, "highway": "secondary", "lanes": "1", "maxspeed": "", "name": "63", "oneway": "yes", "surface": "asphalt", "length": 32.147}}, {"type": "Feature", "geometry": {"type": "LineString", "coordinates": [[23.7264, 37.988628], [23.726208, 37.988342], [23.725983, 37.988018], [23.72596, 37.987984], [23.725895, 37.987888]]}, "properties": {"u": 635132991, "v": 95663474, "highway": "primary", "lanes": "1", "maxspeed": "", "name": "64", "oneway": "yes", "surface": "asphalt", "length": 93.455}}, {"type": "Feature", "geometry": {"type": "LineString", "coordinates": [[23.726452, 37.987034], [23.726364, 37.986954]]}, "properties": {"u": 97834761, "v": 8253823131, "highway": "secondary", "lanes": "2", "maxspeed": "", "name": "65", "oneway": "yes", "surface": "asphalt", "length": 11.767}}, {"type": "Feature", "geometry": {"type": "LineString", "coordinates": [[23.726452, 37.987034], [23.725706, 37.987164]]}, "properties": {"u": 97834761, "v": 2425856882, "highway": "pedestrian", "lanes": "", "maxspeed": "", "name": "66", "oneway": "", "surface": "", "length": 66.931}}, {"type": "Feature", "geometry": {"type": "LineString", "coordinates": [[23.725706, 37.987164], [23.725655, 37.986996]]}, "properties": {"u": 2425856882, "v": 2425856881, "highway": "service", "lanes": "", "maxspeed": "", "name": "67", "oneway": "no", "surface": "", "length": 19.202}}, {"type": "Feature", "geometry": {"type": "LineString", "coordinates": [[23.725706, 37.987164], [23.725441, 37.987213]]}, "properties": {"u": 2425856882, "v": 95663501, "highway": "service", "lanes": "", "maxspeed": "", "name": "68", "oneway": "", "surface": "", "length": 23.88}}, {"type": "Feature", "geometry": {"type": "LineString", "coordinates": [[23.726452, 37.987034], [23.725706, 37.987164]]}, "properties": {"u": 2425856882, "v": 97834761, "highway": "pedestrian", "lanes": "", "maxspeed": "", "name": "69", "oneway": "", "surface": "", "length": 66.931}}, {"type": "Feature", "geometry": {"type": "LineString", "coordinates": [[23.729355, 37.989502], [23.729275, 37.989513], [23.728149, 37.989689]]}, "properties": {"u": 95663631, "v": 95663529, "highway": "residential", "lanes": "", "maxspeed": "", "name": "70", "oneway": "yes", "surface": "asphalt", "length": 107.666}}, {"type": "Feature", "geometry": {"type": "LineString", "coordinates": [[23.729355, 37.989502], [23.729429, 37.989799], [23.729509, 37.99012], [23.729519, 37.990154]]}, "properties": {"u": 95663631, "v": 95663394, "highway": "secondary", "lanes": "2", "maxspeed": "", "name": "71", "oneway": "yes", "surface": "asphalt", "length": 73.94600000000001}}, {"type": "Feature", "geometry": {"type": "LineString", "coordinates": [[23.728149, 37.989689], [23.728098, 37.989487], [23.727999, 37.989086], [23.727993, 37.989056], [23.727985, 37.989025]]}, "properties": {"u": 95663529, "v": 95663398, "highway": "tertiary", "lanes": "2", "maxspeed": "", "name": "72", "oneway": "yes", "surface": "asphalt", "length": 75.19800000000001}}, {"type": "Feature", "geometry": {"type": "LineString", "coordinates": [[23.733633, 37.989491], [23.734102, 37.989418], [23.734253, 37.989395]]}, "properties": {"u": 97788219, "v": 97788769, "highway": "residential", "lanes": "", "maxspeed": "", "name": "73", "oneway": "yes", "surface": "asphalt", "length": 55.35}}, {"type": "Feature", "geometry": {"type": "LineString", "coordinates": [[23.733633, 37.989491], [23.733845, 37.990334], [23.733854, 37.990372]]}, "properties": {"u": 97788219, "v": 97797051, "highway": "tertiary", "lanes": "", "maxspeed": "", "name": "74", "oneway": "yes", "surface": "asphalt", "length": 99.884}}, {"type": "Feature", "geometry": {"type": "LineString", "coordinates": [[23.731129, 37.99131], [23.730989, 37.991333], [23.730247, 37.991451], [23.729965, 37.991497], [23.72991, 37.991505], [23.729837, 37.991516]]}, "properties": {"u": 97788477, "v": 97788471, "highway": "secondary", "lanes": "2", "maxspeed": "", "name": "75", "oneway": "yes", "surface": "asphalt", "length": 115.456}}, {"type": "Feature", "geometry": {"type": "LineString", "coordinates": [[23.731129, 37.99131], [23.731089, 37.991154], [23.731043, 37.990967], [23.730961, 37.990631], [23.730843, 37.990158], [23.730793, 37.98996]]}, "properties": {"u": 97788477, "v": 97788216, "highway": "primary", "lanes": "2", "maxspeed": "", "name": "76", "oneway": "yes", "surface": "asphalt", "length": 153.013}}, {"type": "Feature", "geometry": {"type": "LineString", "coordinates": [[23.729837, 37.991516], [23.729786, 37.991524], [23.72974, 37.991531], [23.729057, 37.991638]]}, "properties": {"u": 97788471, "v": 358465939, "highway": "secondary", "lanes": "2", "maxspeed": "", "name": "77", "oneway": "yes", "surface": "asphalt", "length": 69.69800000000001}}, {"type": "Feature", "geometry": {"type": "LineString", "coordinates": [[23.729837, 37.991516], [23.729919, 37.991848], [23.730015, 37.992222], [23.730017, 37.992237], [23.730026, 37.992275]]}, "properties": {"u": 97788471, "v": 358465410, "highway": "secondary", "lanes": "2", "maxspeed": "", "name": "78", "oneway": "yes", "surface": "asphalt", "length": 86.02600000000001}}, {"type": "Feature", "geometry": {"type": "LineString", "coordinates": [[23.729057, 37.991638], [23.728786, 37.99168], [23.728745, 37.991688], [23.728643, 37.991703], [23.728634, 37.991661], [23.728493, 37.991089], [23.72835, 37.990509], [23.728331, 37.990433], [23.72831, 37.990345]]}, "properties": {"u": 358465939, "v": 95663543, "highway": "['secondary', 'tertiary']", "lanes": "2", "maxspeed": "", "name": "79", "oneway": "yes", "surface": "asphalt", "length": 190.79699999999997}}, {"type": "Feature", "geometry": {"type": "LineString", "coordinates": [[23.731749, 37.986176], [23.730938, 37.986317], [23.730888, 37.986324]]}, "properties": {"u": 97788686, "v": 97788594, "highway": "secondary", "lanes": "2", "maxspeed": "", "name": "80", "oneway": "yes", "surface": "asphalt", "length": 77.18299999999999}}, {"type": "Feature", "geometry": {"type": "LineString", "coordinates": [[23.731749, 37.986176], [23.731613, 37.985691], [23.731581, 37.985668], [23.731516, 37.985615], [23.731478, 37.985531], [23.731443, 37.985382], [23.731426, 37.985302], [23.731419, 37.985241], [23.73138, 37.985168]]}, "properties": {"u": 97788686, "v": 250713539, "highway": "residential", "lanes": "", "maxspeed": "", "name": "81", "oneway": "yes", "surface": "asphalt", "length": 118.503}}, {"type": "Feature", "geometry": {"type": "LineString", "coordinates": [[23.730888, 37.986324], [23.730825, 37.986336], [23.730082, 37.98645], [23.730043, 37.986454], [23.729992, 37.986462]]}, "properties": {"u": 97788594, "v": 516020524, "highway": "secondary", "lanes": "2", "maxspeed": "", "name": "82", "oneway": "yes", "surface": "asphalt", "length": 80.045}}, {"type": "Feature", "geometry": {"type": "LineString", "coordinates": [[23.730888, 37.986324], [23.730806, 37.985958], [23.730787, 37.985893], [23.730764, 37.985809]]}, "properties": {"u": 97788594, "v": 3731648988, "highway": "residential", "lanes": "", "maxspeed": "", "name": "83", "oneway": "yes", "surface": "asphalt", "length": 58.297}}, {"type": "Feature", "geometry": {"type": "LineString", "coordinates": [[23.730764, 37.985809], [23.730719, 37.985638]]}, "properties": {"u": 3731648988, "v": 2372564894, "highway": "residential", "lanes": "", "maxspeed": "", "name": "84", "oneway": "yes", "surface": "asphalt", "length": 19.505}}, {"type": "Feature", "geometry": {"type": "LineString", "coordinates": [[23.730764, 37.985809], [23.730919, 37.985664], [23.731134, 37.985435], [23.731234, 37.985332], [23.731266, 37.985298], [23.73138, 37.985168]]}, "properties": {"u": 3731648988, "v": 250713539, "highway": "secondary", "lanes": "2", "maxspeed": "", "name": "85", "oneway": "yes", "surface": "asphalt", "length": 89.44899999999998}}, {"type": "Feature", "geometry": {"type": "LineString", "coordinates": [[23.73472, 37.989323], [23.734949, 37.990192]]}, "properties": {"u": 97788848, "v": 97797086, "highway": "residential", "lanes": "", "maxspeed": "", "name": "86", "oneway": "yes", "surface": "asphalt", "length": 98.77}}, {"type": "Feature", "geometry": {"type": "LineString", "coordinates": [[23.73472, 37.989323], [23.735121, 37.989258], [23.735184, 37.98925]]}, "properties": {"u": 97788848, "v": 97788855, "highway": "residential", "lanes": "", "maxspeed": "", "name": "87", "oneway": "yes", "surface": "asphalt", "length": 41.416}}, {"type": "Feature", "geometry": {"type": "LineString", "coordinates": [[23.734949, 37.990192], [23.734467, 37.990273]]}, "properties": {"u": 97797086, "v": 97797081, "highway": "residential", "lanes": "", "maxspeed": "", "name": "88", "oneway": "yes", "surface": "asphalt", "length": 43.217}}, {"type": "Feature", "geometry": {"type": "LineString", "coordinates": [[23.734949, 37.990192], [23.735155, 37.991016], [23.73517, 37.991081]]}, "properties": {"u": 97797086, "v": 358464018, "highway": "residential", "lanes": "", "maxspeed": "", "name": "89", "oneway": "yes", "surface": "asphalt", "length": 100.717}}, {"type": "Feature", "geometry": {"type": "LineString", "coordinates": [[23.73517, 37.991081], [23.73539, 37.991047], [23.735418, 37.991043], [23.735603, 37.991013], [23.735592, 37.990959], [23.735498, 37.99057], [23.735392, 37.99012]]}, "properties": {"u": 358464018, "v": 569850326, "highway": "['primary', 'tertiary']", "lanes": "['3', '1']", "maxspeed": "[None, '50']", "name": "90", "oneway": "yes", "surface": "asphalt", "length": 139.68200000000002}}, {"type": "Feature", "geometry": {"type": "LineString", "coordinates": [[23.735392, 37.99012], [23.734949, 37.990192]]}, "properties": {"u": 569850326, "v": 97797086, "highway": "residential", "lanes": "", "maxspeed": "", "name": "91", "oneway": "yes", "surface": "asphalt", "length": 39.607}}, {"type": "Feature", "geometry": {"type": "LineString", "coordinates": [[23.735392, 37.99012], [23.73538, 37.990074]]}, "properties": {"u": 569850326, "v": 250713331, "highway": "tertiary", "lanes": "1", "maxspeed": "", "name": "92", "oneway": "", "surface": "asphalt", "length": 5.188}}, {"type": "Feature", "geometry": {"type": "LineString", "coordinates": [[23.735979, 37.989128], [23.736086, 37.989185]]}, "properties": {"u": 97792973, "v": 359096435, "highway": "residential", "lanes": "", "maxspeed": "", "name": "93", "oneway": "", "surface": "asphalt", "length": 11.318}}, {"type": "Feature", "geometry": {"type": "LineString", "coordinates": [[23.733042, 37.991428], [23.732937, 37.991013]]}, "properties": {"u": 358464049, "v": 358464174, "highway": "residential", "lanes": "", "maxspeed": "", "name": "94", "oneway": "yes", "surface": "asphalt", "length": 47.14}}, {"type": "Feature", "geometry": {"type": "LineString", "coordinates": [[23.733042, 37.991428], [23.73374, 37.991318], [23.733992, 37.99128], [23.734077, 37.991268]]}, "properties": {"u": 358464049, "v": 358464040, "highway": "primary", "lanes": "3", "maxspeed": "50", "name": "95", "oneway": "yes", "surface": "asphalt", "length": 92.496}}, {"type": "Feature", "geometry": {"type": "LineString", "coordinates": [[23.732937, 37.991013], [23.732832, 37.990601], [23.732817, 37.990543]]}, "properties": {"u": 358464174, "v": 97797093, "highway": "residential", "lanes": "", "maxspeed": "", "name": "96", "oneway": "yes", "surface": "asphalt", "length": 53.226}}, {"type": "Feature", "geometry": {"type": "LineString", "coordinates": [[23.732937, 37.991013], [23.733932, 37.990849], [23.733971, 37.990841]]}, "properties": {"u": 358464174, "v": 358464166, "highway": "residential", "lanes": "", "maxspeed": "", "name": "97", "oneway": "yes", "surface": "asphalt", "length": 92.586}}, {"type": "Feature", "geometry": {"type": "LineString", "coordinates": [[23.732817, 37.990543], [23.732704, 37.990093]]}, "properties": {"u": 97797093, "v": 97797186, "highway": "residential", "lanes": "", "maxspeed": "", "name": "98", "oneway": "yes", "surface": "asphalt", "length": 51.015}}, {"type": "Feature", "geometry": {"type": "LineString", "coordinates": [[23.732817, 37.990543], [23.732161, 37.99065], [23.732084, 37.990665]]}, "properties": {"u": 97797093, "v": 97797098, "highway": "residential", "lanes": "", "maxspeed": "", "name": "99", "oneway": "yes", "surface": "asphalt", "length": 65.611}}, {"type": "Feature", "geometry": {"type": "LineString", "coordinates": [[23.732704, 37.990093], [23.731972, 37.990208]]}, "properties": {"u": 97797186, "v": 97797196, "highway": "residential", "lanes": "", "maxspeed": "", "name": "100", "oneway": "", "surface": "asphalt", "length": 65.435}}, {"type": "Feature", "geometry": {"type": "LineString", "coordinates": [[23.732704, 37.990093], [23.732622, 37.989773], [23.732599, 37.989681]]}, "properties": {"u": 97797186, "v": 97797191, "highway": "residential", "lanes": "", "maxspeed": "", "name": "101", "oneway": "yes", "surface": "asphalt", "length": 46.724}}, {"type": "Feature", "geometry": {"type": "LineString", "coordinates": [[23.732599, 37.989681], [23.732784, 37.989651], [23.73312, 37.989597]]}, "properties": {"u": 97797191, "v": 97797197, "highway": "tertiary", "lanes": "", "maxspeed": "", "name": "102", "oneway": "yes", "surface": "asphalt", "length": 46.577}}, {"type": "Feature", "geometry": {"type": "LineString", "coordinates": [[23.731972, 37.990208], [23.732084, 37.990665]]}, "properties": {"u": 97797196, "v": 97797098, "highway": "secondary", "lanes": "1", "maxspeed": "", "name": "103", "oneway": "yes", "surface": "asphalt", "length": 51.848}}, {"type": "Feature", "geometry": {"type": "LineString", "coordinates": [[23.732704, 37.990093], [23.731972, 37.990208]]}, "properties": {"u": 97797196, "v": 97797186, "highway": "residential", "lanes": "", "maxspeed": "", "name": "104", "oneway": "", "surface": "asphalt", "length": 65.435}}, {"type": "Feature", "geometry": {"type": "LineString", "coordinates": [[23.733335, 37.990459], [23.73312, 37.989597]]}, "properties": {"u": 97797090, "v": 97797197, "highway": "residential", "lanes": "", "maxspeed": "", "name": "105", "oneway": "yes", "surface": "", "length": 97.707}}, {"type": "Feature", "geometry": {"type": "LineString", "coordinates": [[23.733335, 37.990459], [23.732817, 37.990543]]}, "properties": {"u": 97797090, "v": 97797093, "highway": "residential", "lanes": "", "maxspeed": "", "name": "106", "oneway": "yes", "surface": "asphalt", "length": 46.412}}, {"type": "Feature", "geometry": {"type": "LineString", "coordinates": [[23.73312, 37.989597], [23.733383, 37.989559], [23.733543, 37.989532], [23.733585, 37.989517], [23.733633, 37.989491]]}, "properties": {"u": 97797197, "v": 97788219, "highway": "tertiary", "lanes": "", "maxspeed": "", "name": "107", "oneway": "yes", "surface": "asphalt", "length": 46.980999999999995}}, {"type": "Feature", "geometry": {"type": "LineString", "coordinates": [[23.724989, 37.988174], [23.724876, 37.987755]]}, "properties": {"u": 97834824, "v": 97834765, "highway": "residential", "lanes": "", "maxspeed": "", "name": "108", "oneway": "yes", "surface": "asphalt", "length": 47.69}}, {"type": "Feature", "geometry": {"type": "LineString", "coordinates": [[23.724989, 37.988174], [23.725733, 37.988045]]}, "properties": {"u": 97834824, "v": 97834834, "highway": "residential", "lanes": "", "maxspeed": "", "name": "109", "oneway": "yes", "surface": "asphalt", "length": 66.766}}, {"type": "Feature", "geometry": {"type": "LineString", "coordinates": [[23.724876, 37.987755], [23.724762, 37.987335]]}, "properties": {"u": 97834765, "v": 95663524, "highway": "residential", "lanes": "", "maxspeed": "", "name": "110", "oneway": "yes", "surface": "asphalt", "length": 47.725}}, {"type": "Feature", "geometry": {"type": "LineString", "coordinates": [[23.724876, 37.987755], [23.725721, 37.987614]]}, "properties": {"u": 97834765, "v": 95663499, "highway": "residential", "lanes": "", "maxspeed": "", "name": "111", "oneway": "", "surface": "", "length": 75.695}}, {"type": "Feature", "geometry": {"type": "LineString", "coordinates": [[23.724762, 37.987335], [23.72422, 37.987427]]}, "properties": {"u": 95663524, "v": 633562897, "highway": "residential", "lanes": "", "maxspeed": "", "name": "112", "oneway": "yes", "surface": "asphalt", "length": 48.552}}, {"type": "Feature", "geometry": {"type": "LineString", "coordinates": [[23.724762, 37.987335], [23.724611, 37.986767], [23.724598, 37.986721]]}, "properties": {"u": 95663524, "v": 98303817, "highway": "residential", "lanes": "", "maxspeed": "", "name": "113", "oneway": "yes", "surface": "asphalt", "length": 69.78999999999999}}, {"type": "Feature", "geometry": {"type": "LineString", "coordinates": [[23.724598, 37.986721], [23.725006, 37.986664], [23.725063, 37.986656]]}, "properties": {"u": 98303817, "v": 95663502, "highway": "residential", "lanes": "1", "maxspeed": "", "name": "114", "oneway": "yes", "surface": "asphalt", "length": 41.419}}, {"type": "Feature", "geometry": {"type": "LineString", "coordinates": [[23.725721, 37.987614], [23.725441, 37.987213]]}, "properties": {"u": 95663499, "v": 95663501, "highway": "tertiary", "lanes": "1", "maxspeed": "", "name": "115", "oneway": "yes", "surface": "asphalt", "length": 50.867}}, {"type": "Feature", "geometry": {"type": "LineString", "coordinates": [[23.724876, 37.987755], [23.725721, 37.987614]]}, "properties": {"u": 95663499, "v": 97834765, "highway": "residential", "lanes": "", "maxspeed": "", "name": "116", "oneway": "", "surface": "", "length": 75.695}}, {"type": "Feature", "geometry": {"type": "LineString", "coordinates": [[23.723919, 37.988361], [23.724218, 37.988308]]}, "properties": {"u": 97834909, "v": 633562896, "highway": "residential", "lanes": "", "maxspeed": "", "name": "117", "oneway": "yes", "surface": "asphalt", "length": 26.907}}, {"type": "Feature", "geometry": {"type": "LineString", "coordinates": [[23.723919, 37.988361], [23.723953, 37.98848], [23.724041, 37.988781], [23.724073, 37.988892], [23.724781, 37.988914], [23.724911, 37.988937], [23.724972, 37.988949]]}, "properties": {"u": 97834909, "v": 97839373, "highway": "residential", "lanes": "", "maxspeed": "", "name": "118", "oneway": "yes", "surface": "asphalt", "length": 139.707}}, {"type": "Feature", "geometry": {"type": "LineString", "coordinates": [[23.724972, 37.988949], [23.724924, 37.989014], [23.724878, 37.989082], [23.724865, 37.989098], [23.724779, 37.98922], [23.724501, 37.989624]]}, "properties": {"u": 97839373, "v": 962356512, "highway": "secondary", "lanes": "2", "maxspeed": "30", "name": "119", "oneway": "no", "surface": "asphalt", "length": 85.697}}, {"type": "Feature", "geometry": {"type": "LineString", "coordinates": [[23.724972, 37.988949], [23.725, 37.988911], [23.725029, 37.988873], [23.725069, 37.988819]]}, "properties": {"u": 97839373, "v": 95663490, "highway": "secondary", "lanes": "2", "maxspeed": "30", "name": "120", "oneway": "no", "surface": "asphalt", "length": 16.752}}, {"type": "Feature", "geometry": {"type": "LineString", "coordinates": [[23.723162, 37.985786], [23.723188, 37.985874], [23.723326, 37.986355]]}, "properties": {"u": 5630842135, "v": 95663374, "highway": "residential", "lanes": "1", "maxspeed": "", "name": "121", "oneway": "yes", "surface": "asphalt", "length": 64.817}}, {"type": "Feature", "geometry": {"type": "LineString", "coordinates": [[23.723162, 37.985786], [23.723232, 37.985775], [23.723255, 37.985771], [23.723408, 37.985748], [23.724121, 37.985645]]}, "properties": {"u": 5630842135, "v": 31179468, "highway": "secondary", "lanes": "4", "maxspeed": "", "name": "122", "oneway": "no", "surface": "asphalt", "length": 85.535}}, {"type": "Feature", "geometry": {"type": "LineString", "coordinates": [[23.724121, 37.985645], [23.72468, 37.98597]]}, "properties": {"u": 6693568141, "v": 31179468, "highway": "secondary", "lanes": "4", "maxspeed": "", "name": "123", "oneway": "", "surface": "asphalt", "length": 60.818}}, {"type": "Feature", "geometry": {"type": "LineString", "coordinates": [[23.72468, 37.98597], [23.724806, 37.986046], [23.724827, 37.986057], [23.724924, 37.986115]]}, "properties": {"u": 6693568141, "v": 95663375, "highway": "secondary", "lanes": "4", "maxspeed": "", "name": "124", "oneway": "", "surface": "asphalt", "length": 26.790999999999997}}, {"type": "Feature", "geometry": {"type": "LineString", "coordinates": [[23.725235, 37.986294], [23.725702, 37.986568]]}, "properties": {"u": 844627879, "v": 95663418, "highway": "secondary", "lanes": "4", "maxspeed": "", "name": "125", "oneway": "", "surface": "asphalt", "length": 51.088}}, {"type": "Feature", "geometry": {"type": "LineString", "coordinates": [[23.725235, 37.986294], [23.7251, 37.986217], [23.725086, 37.986206], [23.724924, 37.986115]]}, "properties": {"u": 844627879, "v": 95663375, "highway": "secondary", "lanes": "4", "maxspeed": "", "name": "126", "oneway": "", "surface": "asphalt", "length": 33.797}}, {"type": "Feature", "geometry": {"type": "LineString", "coordinates": [[23.725702, 37.986568], [23.726131, 37.98682]]}, "properties": {"u": 95663418, "v": 95663527, "highway": "secondary", "lanes": "4", "maxspeed": "", "name": "127", "oneway": "no", "surface": "asphalt", "length": 46.886}}, {"type": "Feature", "geometry": {"type": "LineString", "coordinates": [[23.725235, 37.986294], [23.725702, 37.986568]]}, "properties": {"u": 95663418, "v": 844627879, "highway": "secondary", "lanes": "4", "maxspeed": "", "name": "128", "oneway": "", "surface": "asphalt", "length": 51.088}}, {"type": "Feature", "geometry": {"type": "LineString", "coordinates": [[23.727184, 37.985767], [23.727177, 37.985733], [23.727118, 37.985489]]}, "properties": {"u": 95663385, "v": 635138659, "highway": "tertiary", "lanes": "2", "maxspeed": "", "name": "129", "oneway": "yes", "surface": "asphalt", "length": 31.513}}, {"type": "Feature", "geometry": {"type": "LineString", "coordinates": [[23.727184, 37.985767], [23.727129, 37.985775], [23.725925, 37.985958]]}, "properties": {"u": 95663385, "v": 95663376, "highway": "residential", "lanes": "", "maxspeed": "", "name": "130", "oneway": "yes", "surface": "asphalt", "length": 112.346}}, {"type": "Feature", "geometry": {"type": "LineString", "coordinates": [[23.727118, 37.985489], [23.727066, 37.985283], [23.727062, 37.985268], [23.727049, 37.98521]]}, "properties": {"u": 635138659, "v": 95663386, "highway": "tertiary", "lanes": "2", "maxspeed": "", "name": "131", "oneway": "yes", "surface": "asphalt", "length": 31.544}}, {"type": "Feature", "geometry": {"type": "LineString", "coordinates": [[23.727118, 37.985489], [23.727148, 37.985485], [23.727837, 37.985382]]}, "properties": {"u": 635138659, "v": 635138665, "highway": "service", "lanes": "", "maxspeed": "", "name": "132", "oneway": "", "surface": "", "length": 64.13}}, {"type": "Feature", "geometry": {"type": "LineString", "coordinates": [[23.726944, 37.984783], [23.726917, 37.984673], [23.726902, 37.984615], [23.726858, 37.984436], [23.726831, 37.984325]]}, "properties": {"u": 11256819886, "v": 250720871, "highway": "tertiary", "lanes": "2", "maxspeed": "", "name": "133", "oneway": "yes", "surface": "asphalt", "length": 51.85}}, {"type": "Feature", "geometry": {"type": "LineString", "coordinates": [[23.726944, 37.984783], [23.726093, 37.984924], [23.726143, 37.985123]]}, "properties": {"u": 11256819886, "v": 11256886099, "highway": "service", "lanes": "", "maxspeed": "", "name": "134", "oneway": "", "surface": "", "length": 98.669}}, {"type": "Feature", "geometry": {"type": "LineString", "coordinates": [[23.726831, 37.984325], [23.726734, 37.983932], [23.726627, 37.983494], [23.72662, 37.983463], [23.72661, 37.983425]]}, "properties": {"u": 250720871, "v": 7214467394, "highway": "tertiary", "lanes": "2", "maxspeed": "", "name": "135", "oneway": "yes", "surface": "asphalt", "length": 101.966}}, {"type": "Feature", "geometry": {"type": "LineString", "coordinates": [[23.726831, 37.984325], [23.726124, 37.984444], [23.725939, 37.984474], [23.725653, 37.98452], [23.725588, 37.984531], [23.725561, 37.984535]]}, "properties": {"u": 250720871, "v": 250720872, "highway": "primary", "lanes": "3", "maxspeed": "50", "name": "136", "oneway": "yes", "surface": "asphalt", "length": 113.75}}, {"type": "Feature", "geometry": {"type": "LineString", "coordinates": [[23.727663, 37.982712], [23.72772, 37.982704], [23.727739, 37.9827], [23.727932, 37.982674], [23.728188, 37.982635], [23.728413, 37.982605], [23.728439, 37.982601], [23.72847, 37.982597], [23.72892, 37.982529], [23.729029, 37.982513], [23.728918, 37.982056], [23.728907, 37.98201], [23.728874, 37.98188], [23.72897, 37.981865], [23.730038, 37.981701], [23.730104, 37.981686], [23.730206, 37.981663]]}, "properties": {"u": 97846091, "v": 250691664, "highway": "['pedestrian', 'living_street', 'residential']", "lanes": "['1', None]", "maxspeed": "", "name": "137", "oneway": "yes", "surface": "['paving_stones', 'asphalt']", "length": 312.63100000000003}}, {"type": "Feature", "geometry": {"type": "LineString", "coordinates": [[23.727663, 37.982712], [23.727671, 37.982742], [23.72773, 37.98299], [23.727825, 37.98336], [23.72789, 37.983616], [23.727896, 37.983646], [23.727922, 37.983746]]}, "properties": {"u": 97846091, "v": 6724001742, "highway": "tertiary", "lanes": "2", "maxspeed": "", "name": "138", "oneway": "no", "surface": "asphalt", "length": 117.185}}, {"type": "Feature", "geometry": {"type": "LineString", "coordinates": [[23.724218, 37.988308], [23.724989, 37.988174]]}, "properties": {"u": 633562896, "v": 97834824, "highway": "residential", "lanes": "", "maxspeed": "", "name": "139", "oneway": "yes", "surface": "asphalt", "length": 69.143}}, {"type": "Feature", "geometry": {"type": "LineString", "coordinates": [[23.732876, 37.977356], [23.733147, 37.977318], [23.733164, 37.977318], [23.733248, 37.977314], [23.733324, 37.977322], [23.733404, 37.977345], [23.733601, 37.977448], [23.733618, 37.977459], [23.733727, 37.977501]]}, "properties": {"u": 250706414, "v": 250691670, "highway": "residential", "lanes": "1", "maxspeed": "", "name": "140", "oneway": "yes", "surface": "asphalt", "length": 80.459}}, {"type": "Feature", "geometry": {"type": "LineString", "coordinates": [[23.734379, 37.9762], [23.734081, 37.976261], [23.733801, 37.976311], [23.733755, 37.976318], [23.733686, 37.976326], [23.733459, 37.976353], [23.733234, 37.976383], [23.733149, 37.976395], [23.73303, 37.976414], [23.732685, 37.97646], [23.732744, 37.976757], [23.732758, 37.976822], [23.732801, 37.977016], [23.732876, 37.977356]]}, "properties": {"u": 42240105, "v": 250706414, "highway": "residential", "lanes": "", "maxspeed": "", "name": "141", "oneway": "yes", "surface": "asphalt", "length": 252.419}}, {"type": "Feature", "geometry": {"type": "LineString", "coordinates": [[23.736486, 37.978928], [23.736523, 37.978947], [23.736816, 37.979099]]}, "properties": {"u": 250691755, "v": 2313405235, "highway": "tertiary", "lanes": "2", "maxspeed": "", "name": "142", "oneway": "yes", "surface": "asphalt", "length": 34.652}}, {"type": "Feature", "geometry": {"type": "LineString", "coordinates": [[23.736486, 37.978928], [23.736502, 37.978912], [23.736923, 37.978401]]}, "properties": {"u": 250691755, "v": 250692359, "highway": "secondary", "lanes": "4", "maxspeed": "", "name": "143", "oneway": "yes", "surface": "asphalt", "length": 69.952}}, {"type": "Feature", "geometry": {"type": "LineString", "coordinates": [[23.736816, 37.979099], [23.737015, 37.979202]]}, "properties": {"u": 2313405235, "v": 300401360, "highway": "tertiary", "lanes": "2", "maxspeed": "", "name": "144", "oneway": "yes", "surface": "asphalt", "length": 20.819}}, {"type": "Feature", "geometry": {"type": "LineString", "coordinates": [[23.736816, 37.979099], [23.736628, 37.979324], [23.736586, 37.979378]]}, "properties": {"u": 2313405235, "v": 2313405251, "highway": "service", "lanes": "", "maxspeed": "", "name": "145", "oneway": "", "surface": "asphalt", "length": 36.989}}, {"type": "Feature", "geometry": {"type": "LineString", "coordinates": [[23.737015, 37.979202], [23.737373, 37.979389], [23.737532, 37.979469], [23.737539, 37.979473]]}, "properties": {"u": 300401360, "v": 250691753, "highway": "tertiary", "lanes": "2", "maxspeed": "", "name": "146", "oneway": "yes", "surface": "asphalt", "length": 54.961}}, {"type": "Feature", "geometry": {"type": "LineString", "coordinates": [[23.737015, 37.979202], [23.737026, 37.979187], [23.737421, 37.978668]]}, "properties": {"u": 300401360, "v": 300401271, "highway": "residential", "lanes": "", "maxspeed": "", "name": "147", "oneway": "yes", "surface": "asphalt", "length": 69.242}}, {"type": "Feature", "geometry": {"type": "LineString", "coordinates": [[23.737539, 37.979473], [23.737061, 37.980064], [23.737057, 37.980072], [23.737034, 37.980099]]}, "properties": {"u": 250691753, "v": 10134034294, "highway": "secondary", "lanes": "2", "maxspeed": "", "name": "148", "oneway": "yes", "surface": "asphalt", "length": 82.491}}, {"type": "Feature", "geometry": {"type": "LineString", "coordinates": [[23.737034, 37.980099], [23.736063, 37.979576], [23.736023, 37.979553], [23.735985, 37.979534]]}, "properties": {"u": 10134034294, "v": 300400470, "highway": "residential", "lanes": "", "maxspeed": "", "name": "149", "oneway": "yes", "surface": "asphalt", "length": 111.336}}, {"type": "Feature", "geometry": {"type": "LineString", "coordinates": [[23.737034, 37.980099], [23.737011, 37.980129], [23.736483, 37.980782], [23.736452, 37.98082]]}, "properties": {"u": 10134034294, "v": 10134034290, "highway": "secondary", "lanes": "2", "maxspeed": "", "name": "150", "oneway": "yes", "surface": "asphalt", "length": 95.012}}, {"type": "Feature", "geometry": {"type": "LineString", "coordinates": [[23.729876, 37.985954], [23.729933, 37.985943], [23.729963, 37.985939], [23.730612, 37.985836], [23.730686, 37.985825], [23.730764, 37.985809]]}, "properties": {"u": 250714052, "v": 3731648988, "highway": "secondary", "lanes": "2", "maxspeed": "", "name": "151", "oneway": "yes", "surface": "asphalt", "length": 79.56099999999999}}, {"type": "Feature", "geometry": {"type": "LineString", "coordinates": [[23.729876, 37.985954], [23.729847, 37.985836], [23.729801, 37.985645], [23.729755, 37.985455], [23.729736, 37.985374]]}, "properties": {"u": 250714052, "v": 250714050, "highway": "primary", "lanes": "3", "maxspeed": "", "name": "152", "oneway": "yes", "surface": "asphalt", "length": 65.619}}, {"type": "Feature", "geometry": {"type": "LineString", "coordinates": [[23.735888, 37.976883], [23.736013, 37.976944], [23.736971, 37.977406]]}, "properties": {"u": 3339821648, "v": 250691717, "highway": "residential", "lanes": "", "maxspeed": "", "name": "153", "oneway": "yes", "surface": "asphalt", "length": 111.328}}, {"type": "Feature", "geometry": {"type": "LineString", "coordinates": [[23.735888, 37.976883], [23.735865, 37.976933], [23.735817, 37.97699], [23.735697, 37.977131], [23.735666, 37.977165], [23.735613, 37.977222], [23.735329, 37.977558], [23.734974, 37.977974], [23.73494, 37.978016], [23.734875, 37.978092]]}, "properties": {"u": 3339821648, "v": 250691723, "highway": "primary", "lanes": "['4', '5']", "maxspeed": "50", "name": "154", "oneway": "yes", "surface": "asphalt", "length": 161.301}}, {"type": "Feature", "geometry": {"type": "LineString", "coordinates": [[23.736971, 37.977406], [23.737249, 37.977539], [23.737419, 37.977619], [23.737429, 37.977627], [23.737526, 37.977673]]}, "properties": {"u": 250691717, "v": 250691794, "highway": "residential", "lanes": "", "maxspeed": "", "name": "155", "oneway": "yes", "surface": "asphalt", "length": 57.032}}, {"type": "Feature", "geometry": {"type": "LineString", "coordinates": [[23.736971, 37.977406], [23.737007, 37.977402], [23.73712, 37.977375]]}, "properties": {"u": 250691717, "v": 4040706197, "highway": "service", "lanes": "", "maxspeed": "", "name": "156", "oneway": "", "surface": "asphalt", "length": 13.506}}, {"type": "Feature", "geometry": {"type": "LineString", "coordinates": [[23.737526, 37.977673], [23.737659, 37.977512]]}, "properties": {"u": 250691794, "v": 250691793, "highway": "secondary", "lanes": "4", "maxspeed": "", "name": "157", "oneway": "yes", "surface": "asphalt", "length": 21.315}}, {"type": "Feature", "geometry": {"type": "LineString", "coordinates": [[23.737659, 37.977512], [23.737709, 37.977539], [23.738152, 37.977772]]}, "properties": {"u": 250691793, "v": 250692062, "highway": "residential", "lanes": "", "maxspeed": "", "name": "158", "oneway": "yes", "surface": "asphalt", "length": 51.888000000000005}}, {"type": "Feature", "geometry": {"type": "LineString", "coordinates": [[23.737659, 37.977512], [23.737774, 37.977371], [23.737803, 37.977337], [23.737839, 37.977291]]}, "properties": {"u": 250691793, "v": 6220792260, "highway": "secondary", "lanes": "4", "maxspeed": "", "name": "159", "oneway": "yes", "surface": "asphalt", "length": 29.194000000000003}}, {"type": "Feature", "geometry": {"type": "LineString", "coordinates": [[23.738152, 37.977772], [23.738602, 37.978012], [23.738676, 37.97805], [23.738688, 37.978058]]}, "properties": {"u": 250692062, "v": 250692063, "highway": "residential", "lanes": "", "maxspeed": "", "name": "160", "oneway": "yes", "surface": "asphalt", "length": 56.744}}, {"type": "Feature", "geometry": {"type": "LineString", "coordinates": [[23.738688, 37.978058], [23.738297, 37.978542], [23.738277, 37.978565], [23.738256, 37.978592]]}, "properties": {"u": 250692063, "v": 250691741, "highway": "secondary", "lanes": "2", "maxspeed": "", "name": "161", "oneway": "yes", "surface": "asphalt", "length": 70.386}}, {"type": "Feature", "geometry": {"type": "LineString", "coordinates": [[23.737421, 37.978668], [23.737717, 37.97831]]}, "properties": {"u": 300401271, "v": 300401270, "highway": "residential", "lanes": "", "maxspeed": "", "name": "162", "oneway": "yes", "surface": "asphalt", "length": 47.553}}, {"type": "Feature", "geometry": {"type": "LineString", "coordinates": [[23.737421, 37.978668], [23.737894, 37.97892], [23.737951, 37.978951], [23.737961, 37.978954]]}, "properties": {"u": 300401271, "v": 300401174, "highway": "residential", "lanes": "1", "maxspeed": "", "name": "163", "oneway": "yes", "surface": "asphalt", "length": 57.018}}, {"type": "Feature", "geometry": {"type": "LineString", "coordinates": [[23.737717, 37.97831], [23.738152, 37.977772]]}, "properties": {"u": 300401270, "v": 250692062, "highway": "residential", "lanes": "", "maxspeed": "", "name": "164", "oneway": "yes", "surface": "asphalt", "length": 70.922}}, {"type": "Feature", "geometry": {"type": "LineString", "coordinates": [[23.737717, 37.97831], [23.737282, 37.978081], [23.737249, 37.978065], [23.737209, 37.978046]]}, "properties": {"u": 300401270, "v": 250691739, "highway": "residential", "lanes": "", "maxspeed": "", "name": "165", "oneway": "yes", "surface": "asphalt", "length": 53.244}}, {"type": "Feature", "geometry": {"type": "LineString", "coordinates": [[23.736923, 37.978401], [23.737421, 37.978668]]}, "properties": {"u": 250692359, "v": 300401271, "highway": "residential", "lanes": "1", "maxspeed": "", "name": "166", "oneway": "yes", "surface": "asphalt", "length": 52.778}}, {"type": "Feature", "geometry": {"type": "LineString", "coordinates": [[23.736923, 37.978401], [23.737, 37.97831], [23.737144, 37.978134], [23.737156, 37.978119], [23.737209, 37.978046]]}, "properties": {"u": 250692359, "v": 250691739, "highway": "secondary", "lanes": "4", "maxspeed": "", "name": "167", "oneway": "yes", "surface": "asphalt", "length": 46.755}}, {"type": "Feature", "geometry": {"type": "LineString", "coordinates": [[23.737961, 37.978954], [23.737555, 37.979454], [23.737539, 37.979473]]}, "properties": {"u": 300401174, "v": 250691753, "highway": "secondary", "lanes": "2", "maxspeed": "", "name": "168", "oneway": "yes", "surface": "asphalt", "length": 68.504}}, {"type": "Feature", "geometry": {"type": "LineString", "coordinates": [[23.737839, 37.977291], [23.737944, 37.97728], [23.738674, 37.97718], [23.738947, 37.977142], [23.739338, 37.977089], [23.739363, 37.977085], [23.739367, 37.977116], [23.73938, 37.977203], [23.739212, 37.977409], [23.739059, 37.9776], [23.739029, 37.977638], [23.738688, 37.978058]]}, "properties": {"u": 6220792260, "v": 250692063, "highway": "['secondary', 'tertiary']", "lanes": "2", "maxspeed": "", "name": "169", "oneway": "yes", "surface": "asphalt", "length": 261.51099999999997}}, {"type": "Feature", "geometry": {"type": "LineString", "coordinates": [[23.737839, 37.977291], [23.737864, 37.977222], [23.737867, 37.977139], [23.737747, 37.976582], [23.737658, 37.976177], [23.737648, 37.976131], [23.737617, 37.975975]]}, "properties": {"u": 6220792260, "v": 6220792258, "highway": "secondary", "lanes": "3", "maxspeed": "", "name": "170", "oneway": "yes", "surface": "asphalt", "length": 148.493}}, {"type": "Feature", "geometry": {"type": "LineString", "coordinates": [[23.728893, 37.983215], [23.72897, 37.983185], [23.728994, 37.983177], [23.729038, 37.98317], [23.729084, 37.983181], [23.729128, 37.983204], [23.729155, 37.983246], [23.729275, 37.983715], [23.729292, 37.98378], [23.729301, 37.983822], [23.729383, 37.983917]]}, "properties": {"u": 363357735, "v": 250714051, "highway": "primary", "lanes": "2", "maxspeed": "", "name": "171", "oneway": "yes", "surface": "asphalt", "length": 105.951}}, {"type": "Feature", "geometry": {"type": "LineString", "coordinates": [[23.728893, 37.983215], [23.729013, 37.98307], [23.729069, 37.983006], [23.729153, 37.982903]]}, "properties": {"u": 363357735, "v": 250700142, "highway": "primary", "lanes": "3", "maxspeed": "", "name": "172", "oneway": "yes", "surface": "asphalt", "length": 41.554}}, {"type": "Feature", "geometry": {"type": "LineString", "coordinates": [[23.734875, 37.978092], [23.734983, 37.978149], [23.735138, 37.97823], [23.735329, 37.978329], [23.735939, 37.978645], [23.736158, 37.97876], [23.736378, 37.97887], [23.736391, 37.978878], [23.736486, 37.978928]]}, "properties": {"u": 250691723, "v": 250691755, "highway": "tertiary", "lanes": "2", "maxspeed": "", "name": "173", "oneway": "yes", "surface": "asphalt", "length": 169.074}}, {"type": "Feature", "geometry": {"type": "LineString", "coordinates": [[23.734875, 37.978092], [23.734438, 37.978607], [23.734411, 37.978638], [23.734369, 37.978687]]}, "properties": {"u": 250691723, "v": 250691724, "highway": "primary", "lanes": "5", "maxspeed": "50", "name": "174", "oneway": "yes", "surface": "asphalt", "length": 79.632}}, {"type": "Feature", "geometry": {"type": "LineString", "coordinates": [[23.732719, 37.978703], [23.733654, 37.97924], [23.733686, 37.979259], [23.73382, 37.979336]]}, "properties": {"u": 250691668, "v": 250698924, "highway": "residential", "lanes": "", "maxspeed": "", "name": "175", "oneway": "yes", "surface": "asphalt", "length": 119.42600000000002}}, {"type": "Feature", "geometry": {"type": "LineString", "coordinates": [[23.732719, 37.978703], [23.732641, 37.978657], [23.732218, 37.97842]]}, "properties": {"u": 250691668, "v": 807999510, "highway": "residential", "lanes": "", "maxspeed": "", "name": "176", "oneway": "yes", "surface": "asphalt", "length": 54.024}}, {"type": "Feature", "geometry": {"type": "LineString", "coordinates": [[23.732719, 37.978703], [23.733131, 37.978191], [23.73316, 37.978153], [23.733225, 37.978081]]}, "properties": {"u": 250691668, "v": 250691669, "highway": "primary", "lanes": "3", "maxspeed": "", "name": "177", "oneway": "yes", "surface": "asphalt", "length": 82.13}}, {"type": "Feature", "geometry": {"type": "LineString", "coordinates": [[23.73382, 37.979336], [23.73341, 37.979805], [23.733242, 37.979988], [23.733215, 37.980015], [23.733042, 37.980225], [23.733007, 37.980267], [23.732912, 37.980373]]}, "properties": {"u": 250698924, "v": 250698925, "highway": "primary", "lanes": "5", "maxspeed": "50", "name": "178", "oneway": "yes", "surface": "asphalt", "length": 140.182}}, {"type": "Feature", "geometry": {"type": "LineString", "coordinates": [[23.732912, 37.980373], [23.732908, 37.980488], [23.732908, 37.98056], [23.732922, 37.980618], [23.732937, 37.980659], [23.732954, 37.980694], [23.732985, 37.980732], [23.733011, 37.980762], [23.733034, 37.980785], [23.73308, 37.980816], [23.733112, 37.980835], [23.733753, 37.981167], [23.734051, 37.981327], [23.734211, 37.981422]]}, "properties": {"u": 250698925, "v": 250709162, "highway": "tertiary", "lanes": "2", "maxspeed": "", "name": "179", "oneway": "yes", "surface": "asphalt", "length": 173.782}}, {"type": "Feature", "geometry": {"type": "LineString", "coordinates": [[23.732912, 37.980373], [23.732655, 37.980675], [23.732376, 37.981003], [23.732334, 37.981052], [23.732288, 37.981106]]}, "properties": {"u": 250698925, "v": 250698926, "highway": "primary", "lanes": "4", "maxspeed": "50", "name": "180", "oneway": "yes", "surface": "asphalt", "length": 98.087}}, {"type": "Feature", "geometry": {"type": "LineString", "coordinates": [[23.731962, 37.981491], [23.731852, 37.981434], [23.731075, 37.981026]]}, "properties": {"u": 250699982, "v": 2725672310, "highway": "tertiary", "lanes": "1", "maxspeed": "", "name": "181", "oneway": "yes", "surface": "asphalt", "length": 93.384}}, {"type": "Feature", "geometry": {"type": "LineString", "coordinates": [[23.731962, 37.981491], [23.731918, 37.981541], [23.73159, 37.98193], [23.731562, 37.981964], [23.731516, 37.982018]]}, "properties": {"u": 250699982, "v": 250699983, "highway": "primary", "lanes": "4", "maxspeed": "50", "name": "182", "oneway": "yes", "surface": "asphalt", "length": 70.405}}, {"type": "Feature", "geometry": {"type": "LineString", "coordinates": [[23.731075, 37.981026], [23.730967, 37.980972], [23.730951, 37.980961], [23.73086, 37.980915]]}, "properties": {"u": 2725672310, "v": 250691665, "highway": "tertiary", "lanes": "1", "maxspeed": "", "name": "183", "oneway": "yes", "surface": "asphalt", "length": 22.576}}, {"type": "Feature", "geometry": {"type": "LineString", "coordinates": [[23.731075, 37.981026], [23.731089, 37.98101], [23.731106, 37.980991], [23.731133, 37.980961]]}, "properties": {"u": 2725672310, "v": 2725672307, "highway": "service", "lanes": "", "maxspeed": "", "name": "184", "oneway": "", "surface": "asphalt", "length": 8.783}}, {"type": "Feature", "geometry": {"type": "LineString", "coordinates": [[23.73086, 37.980915], [23.73148, 37.980175], [23.731491, 37.980164], [23.731586, 37.980057], [23.731716, 37.979897], [23.731981, 37.97958], [23.732162, 37.979366], [23.732199, 37.979321], [23.732239, 37.979275], [23.732658, 37.978775], [23.732719, 37.978703]]}, "properties": {"u": 250691665, "v": 250691668, "highway": "primary", "lanes": "3", "maxspeed": "", "name": "185", "oneway": "yes", "surface": "asphalt", "length": 295.134}}, {"type": "Feature", "geometry": {"type": "LineString", "coordinates": [[23.731516, 37.982018], [23.731339, 37.982227]]}, "properties": {"u": 250699983, "v": 250702474, "highway": "primary", "lanes": "4", "maxspeed": "50", "name": "186", "oneway": "no", "surface": "asphalt", "length": 28.035}}, {"type": "Feature", "geometry": {"type": "LineString", "coordinates": [[23.731516, 37.982018], [23.731628, 37.982075], [23.731831, 37.982178], [23.731987, 37.982258], [23.732191, 37.982361], [23.732306, 37.982422]]}, "properties": {"u": 250699983, "v": 250699984, "highway": "tertiary", "lanes": "2", "maxspeed": "30", "name": "187", "oneway": "yes", "surface": "asphalt", "length": 82.533}}, {"type": "Feature", "geometry": {"type": "LineString", "coordinates": [[23.732306, 37.982422], [23.731985, 37.982792]]}, "properties": {"u": 250699984, "v": 250708099, "highway": "residential", "lanes": "", "maxspeed": "", "name": "188", "oneway": "yes", "surface": "asphalt", "length": 49.816}}, {"type": "Feature", "geometry": {"type": "LineString", "coordinates": [[23.732306, 37.982422], [23.732849, 37.982708], [23.733118, 37.982849], [23.733156, 37.982868], [23.733231, 37.98291]]}, "properties": {"u": 250699984, "v": 250699362, "highway": "tertiary", "lanes": "2", "maxspeed": "30", "name": "189", "oneway": "yes", "surface": "asphalt", "length": 97.582}}, {"type": "Feature", "geometry": {"type": "LineString", "coordinates": [[23.733231, 37.98291], [23.733269, 37.982864], [23.733612, 37.982445]]}, "properties": {"u": 250699362, "v": 599116897, "highway": "secondary", "lanes": "2", "maxspeed": "", "name": "190", "oneway": "yes", "surface": "asphalt", "length": 61.61}}, {"type": "Feature", "geometry": {"type": "LineString", "coordinates": [[23.733231, 37.98291], [23.733303, 37.982944], [23.733688, 37.983143], [23.734247, 37.983429], [23.734297, 37.983456], [23.734308, 37.983463]]}, "properties": {"u": 250699362, "v": 250708641, "highway": "tertiary", "lanes": "2", "maxspeed": "30", "name": "191", "oneway": "yes", "surface": "asphalt", "length": 112.726}}, {"type": "Feature", "geometry": {"type": "LineString", "coordinates": [[23.730206, 37.981663], [23.730318, 37.981693], [23.730335, 37.981705], [23.730766, 37.98193], [23.731228, 37.982174], [23.731339, 37.982227]]}, "properties": {"u": 250691664, "v": 250702474, "highway": "residential", "lanes": "['1', None]", "maxspeed": "", "name": "192", "oneway": "yes", "surface": "asphalt", "length": 117.80700000000002}}, {"type": "Feature", "geometry": {"type": "LineString", "coordinates": [[23.730206, 37.981663], [23.730394, 37.981468], [23.730421, 37.981438], [23.730713, 37.981091], [23.730799, 37.980988], [23.730812, 37.980972], [23.73086, 37.980915]]}, "properties": {"u": 250691664, "v": 250691665, "highway": "primary", "lanes": "3", "maxspeed": "", "name": "193", "oneway": "yes", "surface": "asphalt", "length": 101.039}}, {"type": "Feature", "geometry": {"type": "LineString", "coordinates": [[23.733727, 37.977501], [23.733799, 37.977539], [23.734064, 37.977673], [23.734098, 37.977692], [23.734686, 37.977997], [23.734745, 37.978027], [23.734787, 37.97805], [23.734875, 37.978092]]}, "properties": {"u": 250691670, "v": 250691723, "highway": "tertiary", "lanes": "3", "maxspeed": "", "name": "194", "oneway": "yes", "surface": "asphalt", "length": 120.226}}, {"type": "Feature", "geometry": {"type": "LineString", "coordinates": [[23.733727, 37.977501], [23.734083, 37.977077], [23.734354, 37.976757], [23.734386, 37.976723], [23.734434, 37.976662], [23.734457, 37.976616], [23.734468, 37.976582], [23.734467, 37.976543], [23.73443, 37.976402], [23.734413, 37.976334], [23.734402, 37.976292], [23.734379, 37.9762]]}, "properties": {"u": 250691670, "v": 42240105, "highway": "primary", "lanes": "3", "maxspeed": "", "name": "195", "oneway": "yes", "surface": "asphalt", "length": 164.669}}, {"type": "Feature", "geometry": {"type": "LineString", "coordinates": [[23.73123, 37.983635], [23.731281, 37.983654]]}, "properties": {"u": 250700343, "v": 250708051, "highway": "residential", "lanes": "1", "maxspeed": "", "name": "196", "oneway": "yes", "surface": "asphalt", "length": 4.987}}, {"type": "Feature", "geometry": {"type": "LineString", "coordinates": [[23.73181, 37.983944], [23.730894, 37.984303]]}, "properties": {"u": 250700341, "v": 250707871, "highway": "residential", "lanes": "", "maxspeed": "", "name": "197", "oneway": "yes", "surface": "", "length": 89.599}}, {"type": "Feature", "geometry": {"type": "LineString", "coordinates": [[23.73181, 37.983944], [23.732092, 37.984093], [23.732136, 37.984119], [23.73221, 37.984158]]}, "properties": {"u": 250700341, "v": 250700084, "highway": "residential", "lanes": "1", "maxspeed": "", "name": "198", "oneway": "yes", "surface": "asphalt", "length": 42.397}}, {"type": "Feature", "geometry": {"type": "LineString", "coordinates": [[23.730894, 37.984303], [23.730707, 37.984203], [23.730942, 37.983944], [23.731064, 37.98381], [23.73123, 37.983635]]}, "properties": {"u": 250707871, "v": 250700343, "highway": "residential", "lanes": "", "maxspeed": "", "name": "199", "oneway": "yes", "surface": "[None, 'asphalt']", "length": 97.805}}, {"type": "Feature", "geometry": {"type": "LineString", "coordinates": [[23.731985, 37.982792], [23.731909, 37.982883], [23.731628, 37.983227], [23.731281, 37.983654]]}, "properties": {"u": 250708099, "v": 250708051, "highway": "residential", "lanes": "", "maxspeed": "", "name": "200", "oneway": "yes", "surface": "asphalt", "length": 113.996}}, {"type": "Feature", "geometry": {"type": "LineString", "coordinates": [[23.731281, 37.983654], [23.731689, 37.983879], [23.73181, 37.983944]]}, "properties": {"u": 250708051, "v": 250700341, "highway": "residential", "lanes": "1", "maxspeed": "", "name": "201", "oneway": "yes", "surface": "asphalt", "length": 56.422}}, {"type": "Feature", "geometry": {"type": "LineString", "coordinates": [[23.732922, 37.983288], [23.732841, 37.983242], [23.732552, 37.983089], [23.732151, 37.98288], [23.731985, 37.982792]]}, "properties": {"u": 250700083, "v": 250708099, "highway": "residential", "lanes": "", "maxspeed": "", "name": "202", "oneway": "yes", "surface": "asphalt", "length": 98.888}}, {"type": "Feature", "geometry": {"type": "LineString", "coordinates": [[23.732922, 37.983288], [23.733168, 37.982986], [23.733189, 37.98296], [23.733231, 37.98291]]}, "properties": {"u": 250700083, "v": 250699362, "highway": "secondary", "lanes": "2", "maxspeed": "", "name": "203", "oneway": "yes", "surface": "asphalt", "length": 49.97}}, {"type": "Feature", "geometry": {"type": "LineString", "coordinates": [[23.734011, 37.983829], [23.733995, 37.983822], [23.733675, 37.98365]]}, "properties": {"u": 250706958, "v": 388172056, "highway": "residential", "lanes": "", "maxspeed": "", "name": "204", "oneway": "yes", "surface": "asphalt", "length": 35.540000000000006}}, {"type": "Feature", "geometry": {"type": "LineString", "coordinates": [[23.734011, 37.983829], [23.733818, 37.98407], [23.733578, 37.984371], [23.73348, 37.984493]]}, "properties": {"u": 250706958, "v": 388172075, "highway": "secondary", "lanes": "2", "maxspeed": "", "name": "205", "oneway": "yes", "surface": "asphalt", "length": 87.219}}, {"type": "Feature", "geometry": {"type": "LineString", "coordinates": [[23.733675, 37.98365], [23.733305, 37.983475], [23.733047, 37.983345], [23.732969, 37.983311], [23.732922, 37.983288]]}, "properties": {"u": 388172056, "v": 250700083, "highway": "residential", "lanes": "", "maxspeed": "", "name": "206", "oneway": "yes", "surface": "asphalt", "length": 77.367}}, {"type": "Feature", "geometry": {"type": "LineString", "coordinates": [[23.733675, 37.98365], [23.733425, 37.983856], [23.73316, 37.984043]]}, "properties": {"u": 388172056, "v": 388172055, "highway": "residential", "lanes": "", "maxspeed": "", "name": "207", "oneway": "yes", "surface": "", "length": 62.864}}, {"type": "Feature", "geometry": {"type": "LineString", "coordinates": [[23.734211, 37.981422], [23.734331, 37.981541]]}, "properties": {"u": 250709162, "v": 250699359, "highway": "tertiary", "lanes": "2", "maxspeed": "", "name": "208", "oneway": "yes", "surface": "asphalt", "length": 16.847}}, {"type": "Feature", "geometry": {"type": "LineString", "coordinates": [[23.734211, 37.981422], [23.734272, 37.981346], [23.734709, 37.980827], [23.73477, 37.980755]]}, "properties": {"u": 250709162, "v": 653971361, "highway": "service", "lanes": "1", "maxspeed": "", "name": "209", "oneway": "", "surface": "asphalt", "length": 88.93599999999999}}, {"type": "Feature", "geometry": {"type": "LineString", "coordinates": [[23.73477, 37.980755], [23.734709, 37.980827], [23.734272, 37.981346], [23.734211, 37.981422]]}, "properties": {"u": 653971361, "v": 250709162, "highway": "service", "lanes": "1", "maxspeed": "", "name": "210", "oneway": "", "surface": "asphalt", "length": 88.93599999999999}}, {"type": "Feature", "geometry": {"type": "LineString", "coordinates": [[23.728224, 37.984409], [23.728086, 37.984413], [23.727928, 37.984394], [23.727823, 37.98436], [23.727757, 37.984325], [23.727695, 37.984291], [23.72764, 37.984257], [23.727581, 37.98423], [23.727528, 37.984219], [23.72751, 37.984222], [23.72744, 37.984226], [23.727413, 37.98423], [23.727228, 37.984261], [23.727062, 37.984287], [23.726912, 37.984314], [23.726871, 37.984318], [23.726831, 37.984325]]}, "properties": {"u": 262236447, "v": 250720871, "highway": "primary", "lanes": "3", "maxspeed": "50", "name": "211", "oneway": "yes", "surface": "asphalt", "length": 128.817}}, {"type": "Feature", "geometry": {"type": "LineString", "coordinates": [[23.728224, 37.984409], [23.728165, 37.984478], [23.728146, 37.984509], [23.728136, 37.984539], [23.728134, 37.984577], [23.728136, 37.984612], [23.728142, 37.98465], [23.728209, 37.984943], [23.72822, 37.984985], [23.728226, 37.985008], [23.728233, 37.985035]]}, "properties": {"u": 262236447, "v": 95663423, "highway": "primary", "lanes": "3", "maxspeed": "", "name": "212", "oneway": "yes", "surface": "asphalt", "length": 72.43499999999999}}, {"type": "Feature", "geometry": {"type": "LineString", "coordinates": [[23.725189, 37.986073], [23.725208, 37.986149], [23.725235, 37.986294]]}, "properties": {"u": 95663493, "v": 844627879, "highway": "residential", "lanes": "1", "maxspeed": "", "name": "213", "oneway": "yes", "surface": "asphalt", "length": 24.935}}, {"type": "Feature", "geometry": {"type": "LineString", "coordinates": [[23.725189, 37.986073], [23.725115, 37.986084], [23.724924, 37.986115]]}, "properties": {"u": 95663493, "v": 95663375, "highway": "residential", "lanes": "", "maxspeed": "", "name": "214", "oneway": "yes", "surface": "asphalt", "length": 23.699}}, {"type": "Feature", "geometry": {"type": "LineString", "coordinates": [[23.73468, 37.991158], [23.734619, 37.990906]]}, "properties": {"u": 358464027, "v": 9714370549, "highway": "residential", "lanes": "", "maxspeed": "", "name": "215", "oneway": "yes", "surface": "asphalt", "length": 28.502}}, {"type": "Feature", "geometry": {"type": "LineString", "coordinates": [[23.73468, 37.991158], [23.73517, 37.991081]]}, "properties": {"u": 358464027, "v": 358464018, "highway": "primary", "lanes": "3", "maxspeed": "50", "name": "216", "oneway": "yes", "surface": "asphalt", "length": 43.787}}, {"type": "Feature", "geometry": {"type": "LineString", "coordinates": [[23.734619, 37.990906], [23.734579, 37.990738]]}, "properties": {"u": 9714370549, "v": 358464159, "highway": "residential", "lanes": "", "maxspeed": "", "name": "217", "oneway": "yes", "surface": "asphalt", "length": 18.991}}, {"type": "Feature", "geometry": {"type": "LineString", "coordinates": [[23.734619, 37.990906], [23.734426, 37.990936]]}, "properties": {"u": 9714370549, "v": 9714370547, "highway": "service", "lanes": "", "maxspeed": "", "name": "218", "oneway": "", "surface": "", "length": 17.22}}, {"type": "Feature", "geometry": {"type": "LineString", "coordinates": [[23.734579, 37.990738], [23.734476, 37.990314], [23.734467, 37.990273]]}, "properties": {"u": 358464159, "v": 97797081, "highway": "residential", "lanes": "", "maxspeed": "", "name": "219", "oneway": "yes", "surface": "asphalt", "length": 52.681}}, {"type": "Feature", "geometry": {"type": "LineString", "coordinates": [[23.734467, 37.990273], [23.734253, 37.989395]]}, "properties": {"u": 97797081, "v": 97788769, "highway": "residential", "lanes": "", "maxspeed": "", "name": "220", "oneway": "yes", "surface": "asphalt", "length": 99.34}}, {"type": "Feature", "geometry": {"type": "LineString", "coordinates": [[23.734467, 37.990273], [23.733912, 37.990364], [23.733854, 37.990372]]}, "properties": {"u": 97797081, "v": 97797051, "highway": "residential", "lanes": "", "maxspeed": "", "name": "221", "oneway": "yes", "surface": "asphalt", "length": 54.78}}, {"type": "Feature", "geometry": {"type": "LineString", "coordinates": [[23.734253, 37.989395], [23.734638, 37.989334], [23.73472, 37.989323]]}, "properties": {"u": 97788769, "v": 97788848, "highway": "residential", "lanes": "", "maxspeed": "", "name": "222", "oneway": "yes", "surface": "asphalt", "length": 41.739}}, {"type": "Feature", "geometry": {"type": "LineString", "coordinates": [[23.731869, 37.989792], [23.731972, 37.990208]]}, "properties": {"u": 97797184, "v": 97797196, "highway": "secondary", "lanes": "1", "maxspeed": "", "name": "223", "oneway": "yes", "surface": "asphalt", "length": 47.108}}, {"type": "Feature", "geometry": {"type": "LineString", "coordinates": [[23.731869, 37.989792], [23.732338, 37.989719], [23.732599, 37.989681]]}, "properties": {"u": 97797184, "v": 97797191, "highway": "tertiary", "lanes": "", "maxspeed": "", "name": "224", "oneway": "yes", "surface": "asphalt", "length": 65.19}}, {"type": "Feature", "geometry": {"type": "LineString", "coordinates": [[23.732084, 37.990665], [23.731155, 37.990818]]}, "properties": {"u": 97797098, "v": 97797102, "highway": "residential", "lanes": "", "maxspeed": "", "name": "225", "oneway": "yes", "surface": "asphalt", "length": 83.151}}, {"type": "Feature", "geometry": {"type": "LineString", "coordinates": [[23.732084, 37.990665], [23.732187, 37.991081], [23.732201, 37.991135]]}, "properties": {"u": 97797098, "v": 358464213, "highway": "secondary", "lanes": "1", "maxspeed": "", "name": "226", "oneway": "yes", "surface": "asphalt", "length": 53.160999999999994}}, {"type": "Feature", "geometry": {"type": "LineString", "coordinates": [[23.732201, 37.991135], [23.732937, 37.991013]]}, "properties": {"u": 358464213, "v": 358464174, "highway": "residential", "lanes": "", "maxspeed": "", "name": "227", "oneway": "yes", "surface": "asphalt", "length": 65.931}}, {"type": "Feature", "geometry": {"type": "LineString", "coordinates": [[23.732201, 37.991135], [23.732279, 37.991451], [23.73229, 37.991489], [23.732304, 37.991539]]}, "properties": {"u": 358464213, "v": 358464212, "highway": "secondary", "lanes": "1", "maxspeed": "", "name": "228", "oneway": "yes", "surface": "asphalt", "length": 45.863}}, {"type": "Feature", "geometry": {"type": "LineString", "coordinates": [[23.731319, 37.992073], [23.730131, 37.99226], [23.730095, 37.992264], [23.730026, 37.992275]]}, "properties": {"u": 358465186, "v": 358465410, "highway": "residential", "lanes": "", "maxspeed": "", "name": "229", "oneway": "yes", "surface": "asphalt", "length": 115.54}}, {"type": "Feature", "geometry": {"type": "LineString", "coordinates": [[23.731319, 37.992073], [23.731291, 37.991959], [23.731283, 37.991924], [23.731256, 37.991817]]}, "properties": {"u": 358465186, "v": 6910572379, "highway": "primary", "lanes": "5", "maxspeed": "", "name": "230", "oneway": "yes", "surface": "asphalt", "length": 28.951}}, {"type": "Feature", "geometry": {"type": "LineString", "coordinates": [[23.730026, 37.992275], [23.730127, 37.992676], [23.730194, 37.992664], [23.7313, 37.992493], [23.731419, 37.992474], [23.731319, 37.992073]]}, "properties": {"u": 358465410, "v": 358465186, "highway": "['secondary', 'primary', 'residential']", "lanes": "['2', '1', '3']", "maxspeed": "", "name": "231", "oneway": "yes", "surface": "asphalt", "length": 206.16}}, {"type": "Feature", "geometry": {"type": "LineString", "coordinates": [[23.728745, 37.990276], [23.728964, 37.99123]]}, "properties": {"u": 358465904, "v": 635126478, "highway": "residential", "lanes": "", "maxspeed": "", "name": "232", "oneway": "yes", "surface": "asphalt", "length": 107.772}}, {"type": "Feature", "geometry": {"type": "LineString", "coordinates": [[23.728745, 37.990276], [23.729397, 37.990173], [23.729441, 37.99017], [23.729519, 37.990154]]}, "properties": {"u": 358465904, "v": 95663394, "highway": "secondary", "lanes": "1", "maxspeed": "", "name": "233", "oneway": "yes", "surface": "asphalt", "length": 69.229}}, {"type": "Feature", "geometry": {"type": "LineString", "coordinates": [[23.728964, 37.99123], [23.729048, 37.991596], [23.729057, 37.991638]]}, "properties": {"u": 635126478, "v": 358465939, "highway": "residential", "lanes": "", "maxspeed": "", "name": "234", "oneway": "yes", "surface": "asphalt", "length": 46.120000000000005}}, {"type": "Feature", "geometry": {"type": "LineString", "coordinates": [[23.728964, 37.99123], [23.729694, 37.991165], [23.729753, 37.991161]]}, "properties": {"u": 635126478, "v": 635126483, "highway": "residential", "lanes": "", "maxspeed": "", "name": "235", "oneway": "yes", "surface": "asphalt", "length": 69.621}}, {"type": "Feature", "geometry": {"type": "LineString", "coordinates": [[23.734331, 37.981541], [23.73436, 37.981556], [23.735172, 37.981968], [23.735361, 37.982063], [23.735405, 37.982086], [23.735426, 37.982094]]}, "properties": {"u": 250699359, "v": 8446047162, "highway": "tertiary", "lanes": "2", "maxspeed": "", "name": "236", "oneway": "yes", "surface": "asphalt", "length": 113.99600000000002}}, {"type": "Feature", "geometry": {"type": "LineString", "coordinates": [[23.734331, 37.981541], [23.734402, 37.981453], [23.734478, 37.981358], [23.734575, 37.981243], [23.734608, 37.981201], [23.734711, 37.981068], [23.734879, 37.980873], [23.734915, 37.980831], [23.735283, 37.980385], [23.735355, 37.980297], [23.735395, 37.980247]]}, "properties": {"u": 250699359, "v": 10174555843, "highway": "secondary", "lanes": "4", "maxspeed": "40", "name": "237", "oneway": "yes", "surface": "asphalt", "length": 171.422}}, {"type": "Feature", "geometry": {"type": "LineString", "coordinates": [[23.735426, 37.982094], [23.735413, 37.982109], [23.735123, 37.982471], [23.7351, 37.982498], [23.735083, 37.982517]]}, "properties": {"u": 8446047162, "v": 10134034285, "highway": "secondary", "lanes": "2", "maxspeed": "", "name": "238", "oneway": "yes", "surface": "asphalt", "length": 55.883}}, {"type": "Feature", "geometry": {"type": "LineString", "coordinates": [[23.727324, 37.986328], [23.72699, 37.986382]]}, "properties": {"u": 300398465, "v": 962356671, "highway": "secondary", "lanes": "1", "maxspeed": "", "name": "239", "oneway": "yes", "surface": "asphalt", "length": 29.849}}, {"type": "Feature", "geometry": {"type": "LineString", "coordinates": [[23.727324, 37.986328], [23.727427, 37.986313], [23.727764, 37.986267], [23.72817, 37.986206], [23.728359, 37.986179], [23.728407, 37.986172], [23.728514, 37.986156]]}, "properties": {"u": 300398465, "v": 95663420, "highway": "primary", "lanes": "2", "maxspeed": "", "name": "240", "oneway": "yes", "surface": "asphalt", "length": 106.043}}, {"type": "Feature", "geometry": {"type": "LineString", "coordinates": [[23.727324, 37.986328], [23.727264, 37.986092], [23.727205, 37.985855], [23.727205, 37.985847], [23.727184, 37.985767]]}, "properties": {"u": 300398465, "v": 95663385, "highway": "tertiary", "lanes": "2", "maxspeed": "", "name": "241", "oneway": "yes", "surface": "asphalt", "length": 63.553}}, {"type": "Feature", "geometry": {"type": "LineString", "coordinates": [[23.729383, 37.983917], [23.729391, 37.983807], [23.729288, 37.983418], [23.729202, 37.983086], [23.729183, 37.983021], [23.729153, 37.982903]]}, "properties": {"u": 250714051, "v": 250700142, "highway": "primary", "lanes": "2", "maxspeed": "", "name": "242", "oneway": "yes", "surface": "asphalt", "length": 115.0}}, {"type": "Feature", "geometry": {"type": "LineString", "coordinates": [[23.729383, 37.983917], [23.729218, 37.983944], [23.728916, 37.983986], [23.728794, 37.984005], [23.728733, 37.984013], [23.728647, 37.984028], [23.728596, 37.984062], [23.728559, 37.984112], [23.728514, 37.984215], [23.728453, 37.984291], [23.728373, 37.984352], [23.728371, 37.984352], [23.728285, 37.984394], [23.728224, 37.984409]]}, "properties": {"u": 250714051, "v": 262236447, "highway": "primary", "lanes": "['4', '5']", "maxspeed": "50", "name": "243", "oneway": "yes", "surface": "asphalt", "length": 124.533}}, {"type": "Feature", "geometry": {"type": "LineString", "coordinates": [[23.728514, 37.986156], [23.728651, 37.986137], [23.729683, 37.985981], [23.729731, 37.985973], [23.729876, 37.985954]]}, "properties": {"u": 95663420, "v": 250714052, "highway": "primary", "lanes": "2", "maxspeed": "", "name": "244", "oneway": "yes", "surface": "asphalt", "length": 121.455}}, {"type": "Feature", "geometry": {"type": "LineString", "coordinates": [[23.728514, 37.986156], [23.72863, 37.986622], [23.728638, 37.986652], [23.728645, 37.986675]]}, "properties": {"u": 95663420, "v": 962356679, "highway": "primary", "lanes": "3", "maxspeed": "", "name": "245", "oneway": "yes", "surface": "asphalt", "length": 58.834}}, {"type": "Feature", "geometry": {"type": "LineString", "coordinates": [[23.734062, 37.984875], [23.733967, 37.985008], [23.733925, 37.985062]]}, "properties": {"u": 4464395371, "v": 364104830, "highway": "residential", "lanes": "", "maxspeed": "", "name": "246", "oneway": "yes", "surface": "asphalt", "length": 24.022}}, {"type": "Feature", "geometry": {"type": "LineString", "coordinates": [[23.734062, 37.984875], [23.733891, 37.984772], [23.733818, 37.984737], [23.733755, 37.984726], [23.733709, 37.984718], [23.73366, 37.984711], [23.733488, 37.984505], [23.73348, 37.984493]]}, "properties": {"u": 4464395371, "v": 388172075, "highway": "['residential', 'service']", "lanes": "", "maxspeed": "", "name": "247", "oneway": "", "surface": "[None, 'asphalt']", "length": 69.351}}, {"type": "Feature", "geometry": {"type": "LineString", "coordinates": [[23.733925, 37.985062], [23.733351, 37.9856], [23.732826, 37.985321], [23.732821, 37.985317]]}, "properties": {"u": 364104830, "v": 250706959, "highway": "['tertiary', 'residential']", "lanes": "['1', None]", "maxspeed": "30", "name": "248", "oneway": "yes", "surface": "asphalt", "length": 134.24}}, {"type": "Feature", "geometry": {"type": "LineString", "coordinates": [[23.729736, 37.985374], [23.729649, 37.985386], [23.729088, 37.985474], [23.728521, 37.985561], [23.728371, 37.985584]]}, "properties": {"u": 250714050, "v": 95663422, "highway": "residential", "lanes": "", "maxspeed": "", "name": "249", "oneway": "yes", "surface": "asphalt", "length": 121.943}}, {"type": "Feature", "geometry": {"type": "LineString", "coordinates": [[23.729736, 37.985374], [23.729729, 37.985344], [23.729652, 37.985027], [23.729605, 37.984829], [23.729557, 37.984638], [23.729492, 37.984367], [23.729475, 37.984295], [23.729427, 37.984104], [23.729406, 37.984016], [23.729383, 37.983917]]}, "properties": {"u": 250714050, "v": 250714051, "highway": "primary", "lanes": "3", "maxspeed": "", "name": "250", "oneway": "yes", "surface": "asphalt", "length": 164.964}}, {"type": "Feature", "geometry": {"type": "LineString", "coordinates": [[23.728371, 37.985584], [23.728266, 37.9856], [23.727911, 37.985653], [23.727251, 37.985756], [23.727215, 37.98576], [23.727184, 37.985767]]}, "properties": {"u": 95663422, "v": 95663385, "highway": "residential", "lanes": "", "maxspeed": "", "name": "251", "oneway": "yes", "surface": "asphalt", "length": 105.97299999999998}}, {"type": "Feature", "geometry": {"type": "LineString", "coordinates": [[23.728371, 37.985584], [23.728409, 37.985737], [23.72847, 37.985981], [23.728485, 37.986042], [23.728495, 37.986076], [23.728514, 37.986156]]}, "properties": {"u": 95663422, "v": 95663420, "highway": "primary", "lanes": "3", "maxspeed": "", "name": "252", "oneway": "yes", "surface": "asphalt", "length": 64.85000000000001}}, {"type": "Feature", "geometry": {"type": "LineString", "coordinates": [[23.732821, 37.985317], [23.732782, 37.985298], [23.732317, 37.98505], [23.732195, 37.984985]]}, "properties": {"u": 250706959, "v": 388172083, "highway": "residential", "lanes": "", "maxspeed": "", "name": "253", "oneway": "yes", "surface": "asphalt", "length": 66.093}}, {"type": "Feature", "geometry": {"type": "LineString", "coordinates": [[23.73316, 37.984043], [23.73262, 37.984375]]}, "properties": {"u": 388172055, "v": 388172051, "highway": "residential", "lanes": "", "maxspeed": "", "name": "254", "oneway": "yes", "surface": "", "length": 59.999}}, {"type": "Feature", "geometry": {"type": "LineString", "coordinates": [[23.73316, 37.984043], [23.73348, 37.984493]]}, "properties": {"u": 388172055, "v": 388172075, "highway": "residential", "lanes": "", "maxspeed": "", "name": "255", "oneway": "yes", "surface": "asphalt", "length": 57.393}}, {"type": "Feature", "geometry": {"type": "LineString", "coordinates": [[23.73262, 37.984375], [23.733089, 37.984627]]}, "properties": {"u": 388172051, "v": 388172082, "highway": "residential", "lanes": "1", "maxspeed": "", "name": "256", "oneway": "yes", "surface": "asphalt", "length": 49.747}}, {"type": "Feature", "geometry": {"type": "LineString", "coordinates": [[23.73348, 37.984493], [23.733347, 37.984661], [23.733288, 37.984734]]}, "properties": {"u": 388172075, "v": 250700339, "highway": "secondary", "lanes": "2", "maxspeed": "", "name": "257", "oneway": "yes", "surface": "asphalt", "length": 31.611}}, {"type": "Feature", "geometry": {"type": "LineString", "coordinates": [[23.73348, 37.984493], [23.733488, 37.984505], [23.73366, 37.984711], [23.733709, 37.984718], [23.733755, 37.984726], [23.733818, 37.984737], [23.733891, 37.984772], [23.734062, 37.984875]]}, "properties": {"u": 388172075, "v": 4464395371, "highway": "['residential', 'service']", "lanes": "", "maxspeed": "", "name": "258", "oneway": "", "surface": "[None, 'asphalt']", "length": 69.351}}, {"type": "Feature", "geometry": {"type": "LineString", "coordinates": [[23.733089, 37.984627], [23.732239, 37.984955], [23.732195, 37.984985]]}, "properties": {"u": 388172082, "v": 388172083, "highway": "residential", "lanes": "", "maxspeed": "", "name": "259", "oneway": "yes", "surface": "", "length": 88.128}}, {"type": "Feature", "geometry": {"type": "LineString", "coordinates": [[23.733089, 37.984627], [23.733232, 37.984703], [23.733259, 37.984718], [23.733288, 37.984734]]}, "properties": {"u": 388172082, "v": 250700339, "highway": "residential", "lanes": "1", "maxspeed": "", "name": "260", "oneway": "yes", "surface": "asphalt", "length": 21.057}}, {"type": "Feature", "geometry": {"type": "LineString", "coordinates": [[23.732195, 37.984985], [23.731848, 37.984802], [23.731785, 37.984772], [23.731731, 37.984741]]}, "properties": {"u": 388172083, "v": 250700085, "highway": "residential", "lanes": "", "maxspeed": "", "name": "261", "oneway": "yes", "surface": "asphalt", "length": 48.86599999999999}}, {"type": "Feature", "geometry": {"type": "LineString", "coordinates": [[23.731276, 37.991291], [23.73134, 37.991348], [23.731577, 37.991447], [23.731602, 37.991459], [23.731947, 37.991596]]}, "properties": {"u": 515962403, "v": 4056070360, "highway": "primary_link", "lanes": "2", "maxspeed": "", "name": "262", "oneway": "yes", "surface": "asphalt", "length": 68.416}}, {"type": "Feature", "geometry": {"type": "LineString", "coordinates": [[23.731276, 37.991291], [23.731356, 37.991585], [23.731379, 37.99168]]}, "properties": {"u": 515962403, "v": 5921003579, "highway": "primary", "lanes": "3", "maxspeed": "", "name": "263", "oneway": "yes", "surface": "asphalt", "length": 44.199}}, {"type": "Feature", "geometry": {"type": "LineString", "coordinates": [[23.731276, 37.991291], [23.732075, 37.991158], [23.732201, 37.991135]]}, "properties": {"u": 515962403, "v": 358464213, "highway": "residential", "lanes": "", "maxspeed": "", "name": "264", "oneway": "yes", "surface": "asphalt", "length": 82.913}}, {"type": "Feature", "geometry": {"type": "LineString", "coordinates": [[23.731947, 37.991596], [23.732225, 37.991554], [23.732304, 37.991539]]}, "properties": {"u": 4056070360, "v": 358464212, "highway": "primary", "lanes": "4", "maxspeed": "50", "name": "265", "oneway": "yes", "surface": "asphalt", "length": 31.905}}, {"type": "Feature", "geometry": {"type": "LineString", "coordinates": [[23.73024, 37.987545], [23.73036, 37.987709], [23.730448, 37.988052], [23.730558, 37.988487], [23.73057, 37.988525], [23.730581, 37.988571]]}, "properties": {"u": 97788195, "v": 411703355, "highway": "primary", "lanes": "2", "maxspeed": "", "name": "266", "oneway": "yes", "surface": "asphalt", "length": 118.868}}, {"type": "Feature", "geometry": {"type": "LineString", "coordinates": [[23.73024, 37.987545], [23.730232, 37.987511], [23.730211, 37.987419], [23.730198, 37.987366], [23.730188, 37.987324], [23.730131, 37.987076], [23.73012, 37.987019]]}, "properties": {"u": 97788195, "v": 97788192, "highway": "primary", "lanes": "3", "maxspeed": "", "name": "267", "oneway": "yes", "surface": "asphalt", "length": 59.479000000000006}}, {"type": "Feature", "geometry": {"type": "LineString", "coordinates": [[23.73024, 37.987545], [23.730087, 37.987572], [23.72933, 37.987682], [23.729065, 37.987724], [23.729023, 37.987732], [23.728912, 37.987747]]}, "properties": {"u": 97788195, "v": 95663467, "highway": "secondary", "lanes": "2", "maxspeed": "", "name": "268", "oneway": "yes", "surface": "asphalt", "length": 118.503}}, {"type": "Feature", "geometry": {"type": "LineString", "coordinates": [[23.724501, 37.989624], [23.724779, 37.98922], [23.724865, 37.989098], [23.724878, 37.989082], [23.724924, 37.989014], [23.724972, 37.988949]]}, "properties": {"u": 962356512, "v": 97839373, "highway": "secondary", "lanes": "2", "maxspeed": "30", "name": "269", "oneway": "no", "surface": "asphalt", "length": 85.697}}, {"type": "Feature", "geometry": {"type": "LineString", "coordinates": [[23.730793, 37.98996], [23.73093, 37.989937]]}, "properties": {"u": 97788216, "v": 97788210, "highway": "secondary", "lanes": "1", "maxspeed": "", "name": "270", "oneway": "yes", "surface": "asphalt", "length": 12.301}}, {"type": "Feature", "geometry": {"type": "LineString", "coordinates": [[23.730793, 37.98996], [23.730783, 37.989918], [23.730698, 37.989574], [23.730679, 37.989498]]}, "properties": {"u": 97788216, "v": 597677303, "highway": "primary", "lanes": "2", "maxspeed": "", "name": "271", "oneway": "yes", "surface": "asphalt", "length": 52.297}}, {"type": "Feature", "geometry": {"type": "LineString", "coordinates": [[23.73093, 37.989937], [23.731028, 37.989922], [23.731543, 37.989841], [23.731869, 37.989792]]}, "properties": {"u": 97788210, "v": 97797184, "highway": "secondary", "lanes": "1", "maxspeed": "", "name": "272", "oneway": "yes", "surface": "asphalt", "length": 83.803}}, {"type": "Feature", "geometry": {"type": "LineString", "coordinates": [[23.73093, 37.989937], [23.731066, 37.990467], [23.731155, 37.990818]]}, "properties": {"u": 97788210, "v": 97797102, "highway": "primary", "lanes": "2", "maxspeed": "", "name": "273", "oneway": "yes", "surface": "asphalt", "length": 99.95}}, {"type": "Feature", "geometry": {"type": "LineString", "coordinates": [[23.734077, 37.991268], [23.734098, 37.991352], [23.733103, 37.991508], [23.732979, 37.991528], [23.732531, 37.991604], [23.732481, 37.991611], [23.732382, 37.991627]]}, "properties": {"u": 358464040, "v": 358464177, "highway": "['primary', 'tertiary']", "lanes": "['3', None, '4']", "maxspeed": "[None, '50']", "name": "274", "oneway": "yes", "surface": "asphalt", "length": 163.017}}, {"type": "Feature", "geometry": {"type": "LineString", "coordinates": [[23.734077, 37.991268], [23.734144, 37.991257], [23.73468, 37.991158]]}, "properties": {"u": 358464040, "v": 358464027, "highway": "primary", "lanes": "3", "maxspeed": "50", "name": "275", "oneway": "yes", "surface": "asphalt", "length": 54.233}}, {"type": "Feature", "geometry": {"type": "LineString", "coordinates": [[23.72422, 37.987427], [23.724218, 37.988308]]}, "properties": {"u": 633562897, "v": 633562896, "highway": "residential", "lanes": "", "maxspeed": "", "name": "276", "oneway": "yes", "surface": "", "length": 97.985}}, {"type": "Feature", "geometry": {"type": "LineString", "coordinates": [[23.72422, 37.987427], [23.723679, 37.987526]]}, "properties": {"u": 633562897, "v": 7248584892, "highway": "residential", "lanes": "", "maxspeed": "30", "name": "277", "oneway": "yes", "surface": "asphalt", "length": 48.737}}, {"type": "Feature", "geometry": {"type": "LineString", "coordinates": [[23.72298, 37.986954], [23.722961, 37.987648]]}, "properties": {"u": 633562902, "v": 633562904, "highway": "residential", "lanes": "", "maxspeed": "", "name": "278", "oneway": "", "surface": "asphalt", "length": 77.218}}, {"type": "Feature", "geometry": {"type": "LineString", "coordinates": [[23.722984, 37.986408], [23.72298, 37.986954]]}, "properties": {"u": 633562902, "v": 633562900, "highway": "residential", "lanes": "", "maxspeed": "", "name": "279", "oneway": "", "surface": "asphalt", "length": 60.658}}, {"type": "Feature", "geometry": {"type": "LineString", "coordinates": [[23.72298, 37.986954], [23.723413, 37.986893], [23.723478, 37.986885]]}, "properties": {"u": 633562902, "v": 95663419, "highway": "residential", "lanes": "1", "maxspeed": "", "name": "280", "oneway": "yes", "surface": "asphalt", "length": 44.293}}, {"type": "Feature", "geometry": {"type": "LineString", "coordinates": [[23.72298, 37.986954], [23.722961, 37.987648]]}, "properties": {"u": 633562904, "v": 633562902, "highway": "residential", "lanes": "", "maxspeed": "", "name": "281", "oneway": "", "surface": "asphalt", "length": 77.218}}, {"type": "Feature", "geometry": {"type": "LineString", "coordinates": [[23.729753, 37.991161], [23.729824, 37.991459], [23.729826, 37.991474], [23.729837, 37.991516]]}, "properties": {"u": 635126483, "v": 97788471, "highway": "secondary", "lanes": "2", "maxspeed": "", "name": "282", "oneway": "yes", "surface": "asphalt", "length": 40.136}}, {"type": "Feature", "geometry": {"type": "LineString", "coordinates": [[23.726702, 37.988583], [23.726719, 37.988953], [23.726725, 37.989075], [23.726727, 37.989101], [23.726639, 37.988976], [23.7264, 37.988628]]}, "properties": {"u": 635132981, "v": 635132991, "highway": "primary", "lanes": "['2', '1']", "maxspeed": "", "name": "283", "oneway": "yes", "surface": "asphalt", "length": 117.59300000000002}}, {"type": "Feature", "geometry": {"type": "LineString", "coordinates": [[23.726946, 37.987034], [23.726938, 37.987125], [23.726942, 37.987171], [23.726969, 37.987232], [23.727011, 37.987297]]}, "properties": {"u": 688786344, "v": 962356738, "highway": "primary_link", "lanes": "1", "maxspeed": "", "name": "284", "oneway": "yes", "surface": "asphalt", "length": 30.577}}, {"type": "Feature", "geometry": {"type": "LineString", "coordinates": [[23.726946, 37.987034], [23.726885, 37.987099], [23.726851, 37.987129], [23.726801, 37.987171]]}, "properties": {"u": 688786344, "v": 962356785, "highway": "primary", "lanes": "1", "maxspeed": "", "name": "285", "oneway": "yes", "surface": "asphalt", "length": 19.889}}, {"type": "Feature", "geometry": {"type": "LineString", "coordinates": [[23.727011, 37.987297], [23.72706, 37.987328], [23.72715, 37.987408]]}, "properties": {"u": 962356738, "v": 3879024943, "highway": "primary", "lanes": "2", "maxspeed": "", "name": "286", "oneway": "yes", "surface": "asphalt", "length": 17.391000000000002}}, {"type": "Feature", "geometry": {"type": "LineString", "coordinates": [[23.727837, 37.985382], [23.727148, 37.985485], [23.727118, 37.985489]]}, "properties": {"u": 635138665, "v": 635138659, "highway": "service", "lanes": "", "maxspeed": "", "name": "287", "oneway": "", "surface": "", "length": 64.13}}, {"type": "Feature", "geometry": {"type": "LineString", "coordinates": [[23.732218, 37.97842], [23.732006, 37.978317], [23.731985, 37.978241], [23.731932, 37.97805], [23.731916, 37.977982], [23.731827, 37.977509], [23.731825, 37.977497], [23.73196, 37.977478], [23.732203, 37.977444]]}, "properties": {"u": 807999510, "v": 250706416, "highway": "residential", "lanes": "['1', None]", "maxspeed": "", "name": "288", "oneway": "yes", "surface": "asphalt", "length": 148.05100000000002}}, {"type": "Feature", "geometry": {"type": "LineString", "coordinates": [[23.735435, 37.979248], [23.734844, 37.979931]]}, "properties": {"u": 653971685, "v": 653971690, "highway": "residential", "lanes": "", "maxspeed": "", "name": "289", "oneway": "yes", "surface": "asphalt", "length": 91.928}}, {"type": "Feature", "geometry": {"type": "LineString", "coordinates": [[23.735435, 37.979248], [23.734678, 37.978851], [23.734465, 37.978737], [23.734369, 37.978687]]}, "properties": {"u": 653971685, "v": 250691724, "highway": "residential", "lanes": "", "maxspeed": "", "name": "290", "oneway": "yes", "surface": "asphalt", "length": 112.34499999999998}}, {"type": "Feature", "geometry": {"type": "LineString", "coordinates": [[23.734844, 37.979931], [23.734467, 37.979721], [23.733965, 37.979424], [23.733934, 37.979401], [23.73382, 37.979336]]}, "properties": {"u": 653971690, "v": 250698924, "highway": "residential", "lanes": "", "maxspeed": "", "name": "291", "oneway": "yes", "surface": "asphalt", "length": 111.566}}, {"type": "Feature", "geometry": {"type": "LineString", "coordinates": [[23.73138, 37.985168], [23.731424, 37.985119], [23.731441, 37.985096]]}, "properties": {"u": 250713539, "v": 1609088276, "highway": "secondary", "lanes": "2", "maxspeed": "", "name": "292", "oneway": "yes", "surface": "asphalt", "length": 9.678}}, {"type": "Feature", "geometry": {"type": "LineString", "coordinates": [[23.731441, 37.985096], [23.731451, 37.985085], [23.731462, 37.985069], [23.731634, 37.984859], [23.731712, 37.984764], [23.731731, 37.984741]]}, "properties": {"u": 1609088276, "v": 250700085, "highway": "secondary", "lanes": "2", "maxspeed": "", "name": "293", "oneway": "yes", "surface": "asphalt", "length": 46.924}}, {"type": "Feature", "geometry": {"type": "LineString", "coordinates": [[23.731731, 37.984741], [23.732121, 37.984264], [23.732193, 37.984177], [23.73221, 37.984158]]}, "properties": {"u": 250700085, "v": 250700084, "highway": "secondary", "lanes": "2", "maxspeed": "", "name": "294", "oneway": "yes", "surface": "asphalt", "length": 77.28299999999999}}, {"type": "Feature", "geometry": {"type": "LineString", "coordinates": [[23.731731, 37.984741], [23.73168, 37.984715], [23.73122, 37.984474], [23.730894, 37.984303]]}, "properties": {"u": 250700085, "v": 250707871, "highway": "residential", "lanes": "", "maxspeed": "", "name": "295", "oneway": "yes", "surface": "asphalt", "length": 88.118}}, {"type": "Feature", "geometry": {"type": "LineString", "coordinates": [[23.73221, 37.984158], [23.732456, 37.983856], [23.732525, 37.983772], [23.732691, 37.98357], [23.732855, 37.983368], [23.732874, 37.983345], [23.732922, 37.983288]]}, "properties": {"u": 250700084, "v": 250700083, "highway": "secondary", "lanes": "2", "maxspeed": "", "name": "296", "oneway": "yes", "surface": "asphalt", "length": 115.07}}, {"type": "Feature", "geometry": {"type": "LineString", "coordinates": [[23.73221, 37.984158], [23.732237, 37.984173], [23.732254, 37.98418], [23.73262, 37.984375]]}, "properties": {"u": 250700084, "v": 388172051, "highway": "residential", "lanes": "1", "maxspeed": "", "name": "297", "oneway": "yes", "surface": "asphalt", "length": 43.323}}, {"type": "Feature", "geometry": {"type": "LineString", "coordinates": [[23.730719, 37.985638], [23.730625, 37.985264], [23.730618, 37.985237], [23.730225, 37.985298], [23.730118, 37.985317], [23.730013, 37.985332], [23.729843, 37.985359], [23.729816, 37.985363], [23.729736, 37.985374]]}, "properties": {"u": 2372564894, "v": 250714050, "highway": "residential", "lanes": "", "maxspeed": "", "name": "298", "oneway": "yes", "surface": "asphalt", "length": 124.141}}, {"type": "Feature", "geometry": {"type": "LineString", "coordinates": [[23.730719, 37.985638], [23.730787, 37.985538], [23.730736, 37.985329], [23.730776, 37.985279], [23.731005, 37.985249], [23.731148, 37.985657], [23.731325, 37.985664], [23.731489, 37.985649], [23.731548, 37.985481], [23.731522, 37.985344], [23.731495, 37.985237], [23.731474, 37.985176], [23.731441, 37.985096]]}, "properties": {"u": 2372564894, "v": 1609088276, "highway": "service", "lanes": "", "maxspeed": "", "name": "299", "oneway": "yes", "surface": "[None, 'asphalt']", "length": 203.64300000000003}}, {"type": "Feature", "geometry": {"type": "LineString", "coordinates": [[23.726755, 37.987217], [23.726683, 37.987171]]}, "properties": {"u": 962356657, "v": 31179466, "highway": "primary", "lanes": "2", "maxspeed": "", "name": "300", "oneway": "yes", "surface": "asphalt", "length": 8.14}}, {"type": "Feature", "geometry": {"type": "LineString", "coordinates": [[23.726755, 37.987217], [23.726717, 37.98727], [23.726686, 37.98732], [23.726664, 37.987377], [23.726656, 37.987404], [23.72665, 37.987438], [23.726677, 37.988083]]}, "properties": {"u": 962356657, "v": 95663472, "highway": "primary", "lanes": "2", "maxspeed": "", "name": "301", "oneway": "yes", "surface": "asphalt", "length": 98.233}}, {"type": "Feature", "geometry": {"type": "LineString", "coordinates": [[23.732203, 37.977444], [23.732206, 37.977463], [23.732315, 37.977936], [23.73234, 37.978043], [23.732361, 37.97821], [23.732359, 37.978237], [23.732344, 37.978256], [23.732218, 37.97842]]}, "properties": {"u": 250706416, "v": 807999510, "highway": "residential", "lanes": "", "maxspeed": "", "name": "302", "oneway": "yes", "surface": "asphalt", "length": 113.227}}, {"type": "Feature", "geometry": {"type": "LineString", "coordinates": [[23.732203, 37.977444], [23.732529, 37.977398], [23.732798, 37.977364], [23.732876, 37.977356]]}, "properties": {"u": 250706416, "v": 250706414, "highway": "residential", "lanes": "1", "maxspeed": "", "name": "303", "oneway": "yes", "surface": "asphalt", "length": 59.82299999999999}}, {"type": "Feature", "geometry": {"type": "LineString", "coordinates": [[23.735395, 37.980247], [23.735422, 37.980263], [23.736397, 37.980789], [23.736429, 37.980808], [23.736452, 37.98082]]}, "properties": {"u": 10174555843, "v": 10134034290, "highway": "residential", "lanes": "", "maxspeed": "", "name": "304", "oneway": "yes", "surface": "asphalt", "length": 112.369}}, {"type": "Feature", "geometry": {"type": "LineString", "coordinates": [[23.735395, 37.980247], [23.735937, 37.979595], [23.735985, 37.979534]]}, "properties": {"u": 10174555843, "v": 300400470, "highway": "secondary", "lanes": "4", "maxspeed": "", "name": "305", "oneway": "yes", "surface": "asphalt", "length": 94.661}}, {"type": "Feature", "geometry": {"type": "LineString", "coordinates": [[23.735395, 37.980247], [23.735271, 37.980179], [23.735163, 37.980118], [23.734844, 37.979931]]}, "properties": {"u": 10174555843, "v": 653971690, "highway": "residential", "lanes": "", "maxspeed": "", "name": "306", "oneway": "yes", "surface": "asphalt", "length": 59.784}}, {"type": "Feature", "geometry": {"type": "LineString", "coordinates": [[23.736452, 37.98082], [23.736423, 37.980858], [23.73629, 37.981022], [23.736078, 37.981285], [23.735455, 37.982059], [23.735434, 37.982082], [23.735426, 37.982094]]}, "properties": {"u": 10134034290, "v": 8446047162, "highway": "secondary", "lanes": "2", "maxspeed": "", "name": "307", "oneway": "yes", "surface": "asphalt", "length": 167.82599999999996}}, {"type": "Feature", "geometry": {"type": "LineString", "coordinates": [[23.732382, 37.991627], [23.732292, 37.991642], [23.731848, 37.991718], [23.731558, 37.991768], [23.731451, 37.991791], [23.731407, 37.991795]]}, "properties": {"u": 358464177, "v": 5581434217, "highway": "primary", "lanes": "4", "maxspeed": "50", "name": "308", "oneway": "yes", "surface": "asphalt", "length": 87.461}}, {"type": "Feature", "geometry": {"type": "LineString", "coordinates": [[23.730333, 37.989292], [23.73048, 37.989315], [23.730522, 37.9893], [23.730566, 37.989262], [23.730606, 37.989201]]}, "properties": {"u": 961530806, "v": 961530639, "highway": "primary_link", "lanes": "1", "maxspeed": "", "name": "309", "oneway": "yes", "surface": "asphalt", "length": 30.53599999999999}}, {"type": "Feature", "geometry": {"type": "LineString", "coordinates": [[23.730333, 37.989292], [23.730518, 37.989403], [23.730556, 37.989426], [23.730679, 37.989498]]}, "properties": {"u": 961530806, "v": 597677303, "highway": "primary", "lanes": "3", "maxspeed": "", "name": "310", "oneway": "yes", "surface": "asphalt", "length": 37.948}}, {"type": "Feature", "geometry": {"type": "LineString", "coordinates": [[23.730606, 37.989201], [23.730516, 37.988838], [23.730507, 37.988804], [23.730471, 37.988655]]}, "properties": {"u": 961530639, "v": 97788213, "highway": "primary", "lanes": "2", "maxspeed": "", "name": "311", "oneway": "yes", "surface": "asphalt", "length": 61.808}}, {"type": "Feature", "geometry": {"type": "LineString", "coordinates": [[23.72715, 37.987408], [23.727247, 37.987465]]}, "properties": {"u": 3879024943, "v": 3879024939, "highway": "primary", "lanes": "4", "maxspeed": "", "name": "312", "oneway": "no", "surface": "asphalt", "length": 10.638}}, {"type": "Feature", "geometry": {"type": "LineString", "coordinates": [[23.72715, 37.987408], [23.727011, 37.987366], [23.726875, 37.987289], [23.726851, 37.987274], [23.726755, 37.987217]]}, "properties": {"u": 3879024943, "v": 962356657, "highway": "primary", "lanes": "2", "maxspeed": "", "name": "313", "oneway": "yes", "surface": "asphalt", "length": 40.913}}, {"type": "Feature", "geometry": {"type": "LineString", "coordinates": [[23.727247, 37.987465], [23.727661, 37.987709]]}, "properties": {"u": 95663461, "v": 3879024939, "highway": "primary", "lanes": "4", "maxspeed": "", "name": "314", "oneway": "no", "surface": "asphalt", "length": 45.307}}, {"type": "Feature", "geometry": {"type": "LineString", "coordinates": [[23.727661, 37.987709], [23.727606, 37.98748], [23.727598, 37.987453], [23.727589, 37.987411]]}, "properties": {"u": 95663461, "v": 95663433, "highway": "tertiary", "lanes": "1", "maxspeed": "", "name": "315", "oneway": "yes", "surface": "asphalt", "length": 33.692}}, {"type": "Feature", "geometry": {"type": "LineString", "coordinates": [[23.727661, 37.987709], [23.727846, 37.98782], [23.727978, 37.987888]]}, "properties": {"u": 95663461, "v": 95663464, "highway": "primary", "lanes": "4", "maxspeed": "", "name": "316", "oneway": "no", "surface": "asphalt", "length": 34.184}}, {"type": "Feature", "geometry": {"type": "LineString", "coordinates": [[23.727978, 37.987888], [23.728136, 37.987991], [23.728228, 37.988045]]}, "properties": {"u": 95663464, "v": 962356674, "highway": "primary", "lanes": "3", "maxspeed": "", "name": "317", "oneway": "yes", "surface": "asphalt", "length": 27.972}}, {"type": "Feature", "geometry": {"type": "LineString", "coordinates": [[23.727978, 37.987888], [23.727797, 37.987915], [23.727715, 37.987926]]}, "properties": {"u": 95663464, "v": 95663463, "highway": "secondary", "lanes": "2", "maxspeed": "", "name": "318", "oneway": "yes", "surface": "asphalt", "length": 23.454}}, {"type": "Feature", "geometry": {"type": "LineString", "coordinates": [[23.727978, 37.987888], [23.727846, 37.98782], [23.727661, 37.987709]]}, "properties": {"u": 95663464, "v": 95663461, "highway": "primary", "lanes": "4", "maxspeed": "", "name": "319", "oneway": "no", "surface": "asphalt", "length": 34.184}}, {"type": "Feature", "geometry": {"type": "LineString", "coordinates": [[23.726507, 37.987328], [23.726507, 37.987232], [23.726507, 37.987186], [23.726509, 37.987144], [23.726507, 37.987118], [23.726498, 37.987091], [23.726484, 37.987076], [23.726452, 37.987034]]}, "properties": {"u": 962356740, "v": 97834761, "highway": "primary_link", "lanes": "1", "maxspeed": "", "name": "320", "oneway": "yes", "surface": "asphalt", "length": 33.946}}, {"type": "Feature", "geometry": {"type": "LineString", "coordinates": [[23.726507, 37.987328], [23.726564, 37.987274], [23.726597, 37.987244], [23.726683, 37.987171]]}, "properties": {"u": 962356740, "v": 31179466, "highway": "primary", "lanes": "2", "maxspeed": "", "name": "321", "oneway": "yes", "surface": "asphalt", "length": 23.223}}, {"type": "Feature", "geometry": {"type": "LineString", "coordinates": [[23.728245, 37.987846], [23.728205, 37.987949], [23.728207, 37.988007], [23.728228, 37.988045]]}, "properties": {"u": 962356840, "v": 962356674, "highway": "primary_link", "lanes": "1", "maxspeed": "", "name": "322", "oneway": "yes", "surface": "asphalt", "length": 22.967}}, {"type": "Feature", "geometry": {"type": "LineString", "coordinates": [[23.728245, 37.987846], [23.728102, 37.987869], [23.727978, 37.987888]]}, "properties": {"u": 962356840, "v": 95663464, "highway": "secondary", "lanes": "2", "maxspeed": "", "name": "323", "oneway": "yes", "surface": "asphalt", "length": 23.862}}, {"type": "Feature", "geometry": {"type": "LineString", "coordinates": [[23.728228, 37.988045], [23.728956, 37.988476], [23.729015, 37.98851], [23.729122, 37.988575]]}, "properties": {"u": 962356674, "v": 95663392, "highway": "primary", "lanes": "3", "maxspeed": "", "name": "324", "oneway": "yes", "surface": "asphalt", "length": 98.093}}, {"type": "Feature", "geometry": {"type": "LineString", "coordinates": [[23.726364, 37.986954], [23.726494, 37.986988], [23.726597, 37.987049], [23.726641, 37.987076], [23.726732, 37.987129]]}, "properties": {"u": 8253823131, "v": 962356923, "highway": "secondary", "lanes": "2", "maxspeed": "", "name": "325", "oneway": "yes", "surface": "asphalt", "length": 38.123999999999995}}, {"type": "Feature", "geometry": {"type": "LineString", "coordinates": [[23.726364, 37.986954], [23.726326, 37.986935], [23.726131, 37.98682]]}, "properties": {"u": 8253823131, "v": 95663527, "highway": "secondary", "lanes": "4", "maxspeed": "", "name": "326", "oneway": "no", "surface": "asphalt", "length": 25.234}}, {"type": "Feature", "geometry": {"type": "LineString", "coordinates": [[23.727144, 37.986553], [23.727112, 37.986473], [23.727077, 37.986435], [23.72699, 37.986382]]}, "properties": {"u": 962356608, "v": 962356671, "highway": "primary_link", "lanes": "1", "maxspeed": "", "name": "327", "oneway": "yes", "surface": "asphalt", "length": 24.266}}, {"type": "Feature", "geometry": {"type": "LineString", "coordinates": [[23.727144, 37.986553], [23.727171, 37.986496], [23.727194, 37.986458], [23.727324, 37.986328]]}, "properties": {"u": 962356608, "v": 300398465, "highway": "primary", "lanes": "2", "maxspeed": "", "name": "328", "oneway": "yes", "surface": "asphalt", "length": 29.834}}, {"type": "Feature", "geometry": {"type": "LineString", "coordinates": [[23.72699, 37.986382], [23.726122, 37.986507], [23.726063, 37.986515]]}, "properties": {"u": 962356671, "v": 95663492, "highway": "secondary", "lanes": "1", "maxspeed": "", "name": "329", "oneway": "yes", "surface": "asphalt", "length": 82.58500000000001}}, {"type": "Feature", "geometry": {"type": "LineString", "coordinates": [[23.735796, 37.976105], [23.735806, 37.976189], [23.735815, 37.976261], [23.735826, 37.976349], [23.735844, 37.976501]]}, "properties": {"u": 2511789008, "v": 250691827, "highway": "primary", "lanes": "3", "maxspeed": "50", "name": "330", "oneway": "yes", "surface": "asphalt", "length": 44.313}}, {"type": "Feature", "geometry": {"type": "LineString", "coordinates": [[23.735796, 37.976105], [23.735723, 37.97607], [23.73564, 37.976032], [23.735491, 37.976051], [23.734537, 37.976177], [23.734499, 37.976185], [23.734379, 37.9762]]}, "properties": {"u": 2511789008, "v": 42240105, "highway": "primary", "lanes": "3", "maxspeed": "['30', None]", "name": "331", "oneway": "yes", "surface": "asphalt", "length": 127.988}}, {"type": "Feature", "geometry": {"type": "LineString", "coordinates": [[23.731407, 37.991795], [23.731256, 37.991817]]}, "properties": {"u": 5581434217, "v": 6910572379, "highway": "primary", "lanes": "4", "maxspeed": "50", "name": "332", "oneway": "yes", "surface": "asphalt", "length": 13.448}}, {"type": "Feature", "geometry": {"type": "LineString", "coordinates": [[23.732304, 37.991539], [23.732382, 37.991627]]}, "properties": {"u": 358464212, "v": 358464177, "highway": "secondary", "lanes": "1", "maxspeed": "", "name": "333", "oneway": "yes", "surface": "asphalt", "length": 11.922}}, {"type": "Feature", "geometry": {"type": "LineString", "coordinates": [[23.732304, 37.991539], [23.732452, 37.991516], [23.733042, 37.991428]]}, "properties": {"u": 358464212, "v": 358464049, "highway": "primary", "lanes": "3", "maxspeed": "50", "name": "334", "oneway": "yes", "surface": "asphalt", "length": 65.846}}, {"type": "Feature", "geometry": {"type": "LineString", "coordinates": [[23.731379, 37.99168], [23.731407, 37.991795]]}, "properties": {"u": 5921003579, "v": 5581434217, "highway": "primary", "lanes": "3", "maxspeed": "", "name": "335", "oneway": "yes", "surface": "asphalt", "length": 12.97}}, {"type": "Feature", "geometry": {"type": "LineString", "coordinates": [[23.731379, 37.99168], [23.731419, 37.991676], [23.731947, 37.991596]]}, "properties": {"u": 5921003579, "v": 4056070360, "highway": "primary", "lanes": "4", "maxspeed": "50", "name": "336", "oneway": "yes", "surface": "asphalt", "length": 50.685}}, {"type": "Feature", "geometry": {"type": "LineString", "coordinates": [[23.732288, 37.981106], [23.731962, 37.981491]]}, "properties": {"u": 250698926, "v": 250699982, "highway": "primary", "lanes": "4", "maxspeed": "50", "name": "337", "oneway": "yes", "surface": "asphalt", "length": 51.503}}, {"type": "Feature", "geometry": {"type": "LineString", "coordinates": [[23.735844, 37.976501], [23.735876, 37.976711], [23.735888, 37.976883]]}, "properties": {"u": 250691827, "v": 3339821648, "highway": "primary", "lanes": "4", "maxspeed": "50", "name": "338", "oneway": "yes", "surface": "asphalt", "length": 42.616}}, {"type": "Feature", "geometry": {"type": "LineString", "coordinates": [[23.730841, 37.989586], [23.730909, 37.989857], [23.730919, 37.989899], [23.73093, 37.989937]]}, "properties": {"u": 97788202, "v": 97788210, "highway": "primary", "lanes": "2", "maxspeed": "", "name": "339", "oneway": "yes", "surface": "asphalt", "length": 39.811}}, {"type": "Feature", "geometry": {"type": "LineString", "coordinates": [[23.729122, 37.988575], [23.729393, 37.988735], [23.729418, 37.98875], [23.7295, 37.9888]]}, "properties": {"u": 95663392, "v": 95663402, "highway": "primary", "lanes": "3", "maxspeed": "", "name": "340", "oneway": "yes", "surface": "asphalt", "length": 41.494}}, {"type": "Feature", "geometry": {"type": "LineString", "coordinates": [[23.729122, 37.988575], [23.729177, 37.988796], [23.729179, 37.988804], [23.729191, 37.988846]]}, "properties": {"u": 95663392, "v": 95663400, "highway": "secondary", "lanes": "2", "maxspeed": "", "name": "341", "oneway": "yes", "surface": "asphalt", "length": 30.712999999999997}}, {"type": "Feature", "geometry": {"type": "LineString", "coordinates": [[23.729191, 37.988846], [23.729355, 37.989502]]}, "properties": {"u": 95663400, "v": 95663631, "highway": "secondary", "lanes": "2", "maxspeed": "", "name": "342", "oneway": "yes", "surface": "asphalt", "length": 74.361}}, {"type": "Feature", "geometry": {"type": "LineString", "coordinates": [[23.729191, 37.988846], [23.729109, 37.988857], [23.727985, 37.989025]]}, "properties": {"u": 95663400, "v": 95663398, "highway": "tertiary", "lanes": "2", "maxspeed": "", "name": "343", "oneway": "yes", "surface": "asphalt", "length": 107.505}}, {"type": "Feature", "geometry": {"type": "LineString", "coordinates": [[23.729519, 37.990154], [23.729607, 37.990143], [23.730396, 37.990021], [23.7307, 37.989975], [23.730793, 37.98996]]}, "properties": {"u": 95663394, "v": 97788216, "highway": "secondary", "lanes": "1", "maxspeed": "", "name": "344", "oneway": "yes", "surface": "asphalt", "length": 113.73600000000002}}, {"type": "Feature", "geometry": {"type": "LineString", "coordinates": [[23.729519, 37.990154], [23.729698, 37.990917], [23.729753, 37.991161]]}, "properties": {"u": 95663394, "v": 635126483, "highway": "secondary", "lanes": "2", "maxspeed": "", "name": "345", "oneway": "yes", "surface": "asphalt", "length": 113.855}}, {"type": "Feature", "geometry": {"type": "LineString", "coordinates": [[23.731516, 37.982018], [23.731339, 37.982227]]}, "properties": {"u": 250702474, "v": 250699983, "highway": "primary", "lanes": "4", "maxspeed": "50", "name": "346", "oneway": "no", "surface": "asphalt", "length": 28.035}}, {"type": "Feature", "geometry": {"type": "LineString", "coordinates": [[23.731339, 37.982227], [23.73131, 37.982258], [23.731016, 37.982605], [23.730974, 37.982655], [23.730644, 37.983044], [23.730547, 37.983158], [23.730532, 37.983177], [23.73049, 37.983227]]}, "properties": {"u": 250702474, "v": 250700248, "highway": "primary", "lanes": "4", "maxspeed": "50", "name": "347", "oneway": "yes", "surface": "asphalt", "length": 133.73700000000002}}, {"type": "Feature", "geometry": {"type": "LineString", "coordinates": [[23.735985, 37.979534], [23.7363, 37.979156], [23.736437, 37.978989], [23.736467, 37.978951], [23.736486, 37.978928]]}, "properties": {"u": 300400470, "v": 250691755, "highway": "secondary", "lanes": "4", "maxspeed": "", "name": "348", "oneway": "yes", "surface": "asphalt", "length": 80.511}}, {"type": "Feature", "geometry": {"type": "LineString", "coordinates": [[23.735985, 37.979534], [23.735922, 37.979504], [23.735435, 37.979248]]}, "properties": {"u": 300400470, "v": 653971685, "highway": "residential", "lanes": "", "maxspeed": "", "name": "349", "oneway": "yes", "surface": "asphalt", "length": 57.711}}, {"type": "Feature", "geometry": {"type": "LineString", "coordinates": [[23.733992, 37.981979], [23.734224, 37.981686], [23.734257, 37.98164], [23.734282, 37.981606], [23.734331, 37.981541]]}, "properties": {"u": 250699613, "v": 250699359, "highway": "secondary", "lanes": "4", "maxspeed": "40", "name": "350", "oneway": "yes", "surface": "asphalt", "length": 57.149}}, {"type": "Feature", "geometry": {"type": "LineString", "coordinates": [[23.733992, 37.981979], [23.73382, 37.981895], [23.73373, 37.98185], [23.732958, 37.981445], [23.732479, 37.981197], [23.732439, 37.981178], [23.732288, 37.981106]]}, "properties": {"u": 250699613, "v": 250698926, "highway": "tertiary", "lanes": "2", "maxspeed": "", "name": "351", "oneway": "yes", "surface": "asphalt", "length": 178.12}}, {"type": "Feature", "geometry": {"type": "LineString", "coordinates": [[23.737724, 37.97596], [23.737617, 37.975975]]}, "properties": {"u": 6220792258, "v": 7878279520, "highway": "primary", "lanes": "6", "maxspeed": "", "name": "352", "oneway": "no", "surface": "asphalt", "length": 9.515}}, {"type": "Feature", "geometry": {"type": "LineString", "coordinates": [[23.737617, 37.975975], [23.737511, 37.975986], [23.737455, 37.975994], [23.736813, 37.976078], [23.736097, 37.97617]]}, "properties": {"u": 6220792258, "v": 954712407, "highway": "primary", "lanes": "4", "maxspeed": "", "name": "353", "oneway": "no", "surface": "asphalt", "length": 134.992}}, {"type": "Feature", "geometry": {"type": "LineString", "coordinates": [[23.736086, 37.989185], [23.73572, 37.989628]]}, "properties": {"u": 359096435, "v": 1303525204, "highway": "residential", "lanes": "", "maxspeed": "", "name": "354", "oneway": "yes", "surface": "asphalt", "length": 58.746}}, {"type": "Feature", "geometry": {"type": "LineString", "coordinates": [[23.735979, 37.989128], [23.736086, 37.989185]]}, "properties": {"u": 359096435, "v": 97792973, "highway": "residential", "lanes": "", "maxspeed": "", "name": "355", "oneway": "", "surface": "asphalt", "length": 11.318}}, {"type": "Feature", "geometry": {"type": "LineString", "coordinates": [[23.729153, 37.982903], [23.729389, 37.982613]]}, "properties": {"u": 250700142, "v": 250700344, "highway": "primary", "lanes": "3", "maxspeed": "", "name": "356", "oneway": "yes", "surface": "asphalt", "length": 38.327}}, {"type": "Feature", "geometry": {"type": "LineString", "coordinates": [[23.728912, 37.987747], [23.728802, 37.987762], [23.728472, 37.987812], [23.728245, 37.987846]]}, "properties": {"u": 95663467, "v": 962356840, "highway": "secondary", "lanes": "2", "maxspeed": "", "name": "357", "oneway": "yes", "surface": "asphalt", "length": 59.535}}, {"type": "Feature", "geometry": {"type": "LineString", "coordinates": [[23.728912, 37.987747], [23.729017, 37.988163], [23.729029, 37.988205], [23.72908, 37.988407], [23.729094, 37.988461], [23.729122, 37.988575]]}, "properties": {"u": 95663467, "v": 95663392, "highway": "primary", "lanes": "3", "maxspeed": "", "name": "358", "oneway": "yes", "surface": "asphalt", "length": 93.866}}, {"type": "Feature", "geometry": {"type": "LineString", "coordinates": [[23.725441, 37.987213], [23.724762, 37.987335]]}, "properties": {"u": 95663501, "v": 95663524, "highway": "residential", "lanes": "", "maxspeed": "", "name": "359", "oneway": "yes", "surface": "asphalt", "length": 61.036}}, {"type": "Feature", "geometry": {"type": "LineString", "coordinates": [[23.725441, 37.987213], [23.725063, 37.986656]]}, "properties": {"u": 95663501, "v": 95663502, "highway": "tertiary", "lanes": "1", "maxspeed": "", "name": "360", "oneway": "yes", "surface": "asphalt", "length": 70.219}}, {"type": "Feature", "geometry": {"type": "LineString", "coordinates": [[23.725706, 37.987164], [23.725441, 37.987213]]}, "properties": {"u": 95663501, "v": 2425856882, "highway": "service", "lanes": "", "maxspeed": "", "name": "361", "oneway": "", "surface": "", "length": 23.88}}, {"type": "Feature", "geometry": {"type": "LineString", "coordinates": [[23.729389, 37.982613], [23.729908, 37.98201], [23.730007, 37.981888], [23.730124, 37.981754], [23.730164, 37.981709], [23.730181, 37.981689], [23.730206, 37.981663]]}, "properties": {"u": 250700344, "v": 250691664, "highway": "primary", "lanes": "3", "maxspeed": "", "name": "362", "oneway": "yes", "surface": "asphalt", "length": 127.581}}, {"type": "Feature", "geometry": {"type": "LineString", "coordinates": [[23.729389, 37.982613], [23.729462, 37.982655], [23.729984, 37.98296], [23.730135, 37.983032], [23.730276, 37.983112], [23.730316, 37.983131], [23.73049, 37.983227]]}, "properties": {"u": 250700344, "v": 250700248, "highway": "residential", "lanes": "1", "maxspeed": "", "name": "363", "oneway": "yes", "surface": "asphalt", "length": 118.245}}, {"type": "Feature", "geometry": {"type": "LineString", "coordinates": [[23.734369, 37.978687], [23.733963, 37.979168], [23.73382, 37.979336]]}, "properties": {"u": 250691724, "v": 250698924, "highway": "primary", "lanes": "5", "maxspeed": "50", "name": "364", "oneway": "yes", "surface": "asphalt", "length": 86.70599999999999}}, {"type": "Feature", "geometry": {"type": "LineString", "coordinates": [[23.734369, 37.978687], [23.734283, 37.978645], [23.734238, 37.978615], [23.733692, 37.978325], [23.733358, 37.978146], [23.733326, 37.978127], [23.733225, 37.978081]]}, "properties": {"u": 250691724, "v": 250691669, "highway": "residential", "lanes": "", "maxspeed": "", "name": "365", "oneway": "yes", "surface": "asphalt", "length": 120.939}}, {"type": "Feature", "geometry": {"type": "LineString", "coordinates": [[23.726801, 37.987171], [23.726755, 37.987217]]}, "properties": {"u": 962356785, "v": 962356657, "highway": "primary", "lanes": "2", "maxspeed": "", "name": "366", "oneway": "yes", "surface": "asphalt", "length": 6.481}}, {"type": "Feature", "geometry": {"type": "LineString", "coordinates": [[23.726801, 37.987171], [23.726891, 37.987225], [23.727011, 37.987297]]}, "properties": {"u": 962356785, "v": 962356738, "highway": "primary", "lanes": "2", "maxspeed": "", "name": "367", "oneway": "yes", "surface": "asphalt", "length": 23.109}}, {"type": "Feature", "geometry": {"type": "LineString", "coordinates": [[23.736586, 37.979378], [23.736628, 37.979324], [23.736816, 37.979099]]}, "properties": {"u": 2313405251, "v": 2313405235, "highway": "service", "lanes": "", "maxspeed": "", "name": "368", "oneway": "", "surface": "asphalt", "length": 36.989}}, {"type": "Feature", "geometry": {"type": "LineString", "coordinates": [[23.725836, 37.987785], [23.725721, 37.987614]]}, "properties": {"u": 5370319353, "v": 95663499, "highway": "tertiary", "lanes": "1", "maxspeed": "", "name": "369", "oneway": "yes", "surface": "asphalt", "length": 21.562}}, {"type": "Feature", "geometry": {"type": "LineString", "coordinates": [[23.725786, 37.987823], [23.725836, 37.987785]]}, "properties": {"u": 5370319353, "v": 5370319352, "highway": "service", "lanes": "", "maxspeed": "", "name": "370", "oneway": "", "surface": "", "length": 6.073}}, {"type": "Feature", "geometry": {"type": "LineString", "coordinates": [[23.725063, 37.986656], [23.7248, 37.986183], [23.724773, 37.986134]]}, "properties": {"u": 95663502, "v": 95663504, "highway": "tertiary", "lanes": "1", "maxspeed": "", "name": "371", "oneway": "yes", "surface": "asphalt", "length": 63.424}}, {"type": "Feature", "geometry": {"type": "LineString", "coordinates": [[23.725063, 37.986656], [23.725372, 37.98661], [23.725613, 37.986576], [23.725702, 37.986568]]}, "properties": {"u": 95663502, "v": 95663418, "highway": "residential", "lanes": "1", "maxspeed": "", "name": "372", "oneway": "yes", "surface": "asphalt", "length": 56.861}}, {"type": "Feature", "geometry": {"type": "LineString", "coordinates": [[23.727457, 37.986874], [23.727068, 37.986942], [23.727051, 37.986946], [23.727041, 37.98695], [23.72703, 37.986954], [23.727018, 37.986965], [23.726946, 37.987034]]}, "properties": {"u": 95663426, "v": 688786344, "highway": "primary", "lanes": "1", "maxspeed": "", "name": "373", "oneway": "yes", "surface": "asphalt", "length": 50.085}}, {"type": "Feature", "geometry": {"type": "LineString", "coordinates": [[23.727457, 37.986874], [23.727362, 37.986485], [23.727352, 37.98645], [23.727324, 37.986328]]}, "properties": {"u": 95663426, "v": 300398465, "highway": "tertiary", "lanes": "1", "maxspeed": "", "name": "374", "oneway": "yes", "surface": "asphalt", "length": 61.777}}, {"type": "Feature", "geometry": {"type": "LineString", "coordinates": [[23.72831, 37.990345], [23.728149, 37.989689]]}, "properties": {"u": 95663543, "v": 95663529, "highway": "tertiary", "lanes": "2", "maxspeed": "", "name": "375", "oneway": "yes", "surface": "asphalt", "length": 74.297}}, {"type": "Feature", "geometry": {"type": "LineString", "coordinates": [[23.72831, 37.990345], [23.728745, 37.990276]]}, "properties": {"u": 95663543, "v": 358465904, "highway": "secondary", "lanes": "1", "maxspeed": "", "name": "376", "oneway": "yes", "surface": "asphalt", "length": 38.867}}, {"type": "Feature", "geometry": {"type": "LineString", "coordinates": [[23.727985, 37.989025], [23.727747, 37.98806], [23.727737, 37.988022], [23.727715, 37.987926]]}, "properties": {"u": 95663398, "v": 95663463, "highway": "tertiary", "lanes": "2", "maxspeed": "", "name": "377", "oneway": "yes", "surface": "asphalt", "length": 124.447}}, {"type": "Feature", "geometry": {"type": "LineString", "coordinates": [[23.730656, 37.988564], [23.730581, 37.988571]]}, "properties": {"u": 6693545575, "v": 411703355, "highway": "service", "lanes": "", "maxspeed": "", "name": "378", "oneway": "", "surface": "paving_stones", "length": 6.574}}, {"type": "Feature", "geometry": {"type": "LineString", "coordinates": [[23.730656, 37.988564], [23.730581, 37.988571]]}, "properties": {"u": 411703355, "v": 6693545575, "highway": "service", "lanes": "", "maxspeed": "", "name": "379", "oneway": "", "surface": "paving_stones", "length": 6.574}}, {"type": "Feature", "geometry": {"type": "LineString", "coordinates": [[23.730581, 37.988571], [23.730604, 37.988667], [23.730621, 37.988731], [23.730635, 37.988785], [23.730684, 37.988979], [23.730761, 37.989277], [23.730768, 37.989304], [23.730841, 37.989586]]}, "properties": {"u": 411703355, "v": 97788202, "highway": "primary", "lanes": "2", "maxspeed": "", "name": "380", "oneway": "yes", "surface": "asphalt", "length": 115.1}}, {"type": "Feature", "geometry": {"type": "LineString", "coordinates": [[23.733854, 37.990372], [23.733335, 37.990459]]}, "properties": {"u": 97797051, "v": 97797090, "highway": "residential", "lanes": "", "maxspeed": "", "name": "381", "oneway": "yes", "surface": "asphalt", "length": 46.5}}, {"type": "Feature", "geometry": {"type": "LineString", "coordinates": [[23.733854, 37.990372], [23.733919, 37.990635], [23.733971, 37.990841]]}, "properties": {"u": 97797051, "v": 358464166, "highway": "tertiary", "lanes": "", "maxspeed": "", "name": "382", "oneway": "yes", "surface": "asphalt", "length": 53.161}}, {"type": "Feature", "geometry": {"type": "LineString", "coordinates": [[23.733971, 37.990841], [23.734058, 37.991192], [23.734062, 37.991207], [23.734077, 37.991268]]}, "properties": {"u": 358464166, "v": 358464040, "highway": "tertiary", "lanes": "", "maxspeed": "", "name": "383", "oneway": "yes", "surface": "asphalt", "length": 48.42}}, {"type": "Feature", "geometry": {"type": "LineString", "coordinates": [[23.733971, 37.990841], [23.734547, 37.990746], [23.734579, 37.990738]]}, "properties": {"u": 358464166, "v": 358464159, "highway": "residential", "lanes": "", "maxspeed": "", "name": "384", "oneway": "yes", "surface": "asphalt", "length": 54.54600000000001}}, {"type": "Feature", "geometry": {"type": "LineString", "coordinates": [[23.725706, 37.987164], [23.725655, 37.986996]]}, "properties": {"u": 2425856881, "v": 2425856882, "highway": "service", "lanes": "", "maxspeed": "", "name": "385", "oneway": "no", "surface": "", "length": 19.202}}, {"type": "Feature", "geometry": {"type": "LineString", "coordinates": [[23.731155, 37.990818], [23.731226, 37.991093], [23.731236, 37.991131], [23.731276, 37.991291]]}, "properties": {"u": 97797102, "v": 515962403, "highway": "primary", "lanes": "2", "maxspeed": "", "name": "386", "oneway": "yes", "surface": "asphalt", "length": 53.642}}, {"type": "Feature", "geometry": {"type": "LineString", "coordinates": [[23.730679, 37.989498], [23.730841, 37.989586]]}, "properties": {"u": 597677303, "v": 97788202, "highway": "primary", "lanes": "2", "maxspeed": "", "name": "387", "oneway": "yes", "surface": "asphalt", "length": 17.235}}, {"type": "Feature", "geometry": {"type": "LineString", "coordinates": [[23.730679, 37.989498], [23.730637, 37.989326], [23.730606, 37.989201]]}, "properties": {"u": 597677303, "v": 961530639, "highway": "primary", "lanes": "2", "maxspeed": "", "name": "388", "oneway": "yes", "surface": "asphalt", "length": 33.69}}, {"type": "Feature", "geometry": {"type": "LineString", "coordinates": [[23.72661, 37.983425], [23.726591, 37.983349], [23.726469, 37.982887], [23.727018, 37.982807], [23.727131, 37.982792], [23.727545, 37.982731], [23.727564, 37.982727], [23.727663, 37.982712]]}, "properties": {"u": 7214467394, "v": 97846091, "highway": "residential", "lanes": "", "maxspeed": "", "name": "389", "oneway": "yes", "surface": "asphalt", "length": 167.531}}, {"type": "Feature", "geometry": {"type": "LineString", "coordinates": [[23.72661, 37.983425], [23.726715, 37.983471], [23.726868, 37.98354]]}, "properties": {"u": 7214467394, "v": 11271426328, "highway": "primary", "lanes": "3", "maxspeed": "50", "name": "390", "oneway": "yes", "surface": "asphalt", "length": 25.908}}, {"type": "Feature", "geometry": {"type": "LineString", "coordinates": [[23.735083, 37.982517], [23.734598, 37.982265], [23.73411, 37.982037], [23.734076, 37.982021], [23.733992, 37.981979]]}, "properties": {"u": 10134034285, "v": 250699613, "highway": "tertiary", "lanes": "2", "maxspeed": "", "name": "391", "oneway": "yes", "surface": "asphalt", "length": 112.815}}, {"type": "Feature", "geometry": {"type": "LineString", "coordinates": [[23.735083, 37.982517], [23.735069, 37.982536], [23.734692, 37.982994]]}, "properties": {"u": 10134034285, "v": 250699711, "highway": "secondary", "lanes": "2", "maxspeed": "", "name": "392", "oneway": "yes", "surface": "asphalt", "length": 63.138}}, {"type": "Feature", "geometry": {"type": "LineString", "coordinates": [[23.734692, 37.982994], [23.734362, 37.983395], [23.734348, 37.983414], [23.734308, 37.983463]]}, "properties": {"u": 250699711, "v": 250708641, "highway": "secondary", "lanes": "2", "maxspeed": "", "name": "393", "oneway": "yes", "surface": "asphalt", "length": 62.062999999999995}}, {"type": "Feature", "geometry": {"type": "LineString", "coordinates": [[23.734692, 37.982994], [23.734707, 37.983002], [23.735516, 37.98341], [23.735559, 37.983437]]}, "properties": {"u": 250699711, "v": 250699973, "highway": "residential", "lanes": "1", "maxspeed": "", "name": "394", "oneway": "yes", "surface": "asphalt", "length": 90.607}}, {"type": "Feature", "geometry": {"type": "LineString", "coordinates": [[23.734308, 37.983463], [23.734325, 37.983471], [23.734907, 37.983768], [23.735142, 37.983887], [23.735189, 37.98391], [23.735559, 37.983437]]}, "properties": {"u": 250708641, "v": 250699973, "highway": "tertiary", "lanes": "['2', '1']", "maxspeed": "['30', None]", "name": "395", "oneway": "yes", "surface": "asphalt", "length": 153.598}}, {"type": "Feature", "geometry": {"type": "LineString", "coordinates": [[23.734308, 37.983463], [23.734255, 37.983528], [23.734032, 37.983807], [23.734026, 37.98381], [23.734011, 37.983829]]}, "properties": {"u": 250708641, "v": 250706958, "highway": "secondary", "lanes": "2", "maxspeed": "", "name": "396", "oneway": "yes", "surface": "asphalt", "length": 48.385}}, {"type": "Feature", "geometry": {"type": "LineString", "coordinates": [[23.733612, 37.982445], [23.733913, 37.982075], [23.733978, 37.981995], [23.733992, 37.981979]]}, "properties": {"u": 599116897, "v": 250699613, "highway": "secondary", "lanes": "2", "maxspeed": "", "name": "397", "oneway": "yes", "surface": "asphalt", "length": 61.521}}, {"type": "Feature", "geometry": {"type": "LineString", "coordinates": [[23.733612, 37.982445], [23.733679, 37.982475], [23.734644, 37.982971], [23.73468, 37.98299], [23.734692, 37.982994]]}, "properties": {"u": 599116897, "v": 250699711, "highway": "residential", "lanes": "1", "maxspeed": "", "name": "398", "oneway": "yes", "surface": "asphalt", "length": 112.645}}, {"type": "Feature", "geometry": {"type": "LineString", "coordinates": [[23.731133, 37.980961], [23.731106, 37.980991], [23.731089, 37.98101], [23.731075, 37.981026]]}, "properties": {"u": 2725672307, "v": 2725672310, "highway": "service", "lanes": "", "maxspeed": "", "name": "399", "oneway": "", "surface": "asphalt", "length": 8.783}}, {"type": "Feature", "geometry": {"type": "LineString", "coordinates": [[23.726868, 37.98354], [23.727016, 37.983604], [23.727205, 37.983688], [23.72732, 37.983738], [23.727381, 37.983761], [23.727406, 37.983768], [23.727463, 37.983784], [23.727514, 37.983791], [23.727564, 37.983799], [23.727638, 37.983788], [23.727922, 37.983746]]}, "properties": {"u": 11271426328, "v": 6724001742, "highway": "primary", "lanes": "3", "maxspeed": "[None, '50']", "name": "400", "oneway": "yes", "surface": "asphalt", "length": 99.899}}, {"type": "Feature", "geometry": {"type": "LineString", "coordinates": [[23.726868, 37.98354], [23.726902, 37.98349], [23.727093, 37.983212]]}, "properties": {"u": 11271426328, "v": 11271426330, "highway": "service", "lanes": "", "maxspeed": "", "name": "401", "oneway": "", "surface": "", "length": 41.471}}, {"type": "Feature", "geometry": {"type": "LineString", "coordinates": [[23.73049, 37.983227], [23.73057, 37.98328], [23.730978, 37.983498], [23.73123, 37.983635]]}, "properties": {"u": 250700248, "v": 250700343, "highway": "residential", "lanes": "1", "maxspeed": "", "name": "402", "oneway": "yes", "surface": "asphalt", "length": 79.208}}, {"type": "Feature", "geometry": {"type": "LineString", "coordinates": [[23.73049, 37.983227], [23.730354, 37.983383], [23.73033, 37.983414], [23.73024, 37.983521], [23.730194, 37.983574], [23.730129, 37.983654], [23.730078, 37.983715], [23.730045, 37.983746], [23.730019, 37.983768], [23.729992, 37.983788], [23.729959, 37.983807], [23.729921, 37.983822], [23.729893, 37.983833], [23.729845, 37.983845], [23.729544, 37.983891], [23.729475, 37.983898], [23.729383, 37.983917]]}, "properties": {"u": 250700248, "v": 250714051, "highway": "primary", "lanes": "4", "maxspeed": "50", "name": "403", "oneway": "yes", "surface": "asphalt", "length": 132.001}}, {"type": "Feature", "geometry": {"type": "LineString", "coordinates": [[23.733225, 37.978081], [23.733435, 37.977833], [23.733452, 37.977814], [23.733646, 37.977596], [23.733667, 37.977573], [23.733727, 37.977501]]}, "properties": {"u": 250691669, "v": 250691670, "highway": "primary", "lanes": "3", "maxspeed": "", "name": "404", "oneway": "yes", "surface": "asphalt", "length": 78.049}}, {"type": "Feature", "geometry": {"type": "LineString", "coordinates": [[23.727922, 37.983746], [23.728064, 37.983727], [23.728182, 37.983707], [23.728413, 37.983669], [23.728451, 37.983662], [23.728495, 37.983646], [23.728533, 37.983631], [23.728571, 37.983612], [23.728584, 37.983597], [23.72883, 37.983292], [23.728865, 37.98325], [23.728893, 37.983215]]}, "properties": {"u": 6724001742, "v": 363357735, "highway": "primary", "lanes": "3", "maxspeed": "", "name": "405", "oneway": "yes", "surface": "asphalt", "length": 111.543}}, {"type": "Feature", "geometry": {"type": "LineString", "coordinates": [[23.727922, 37.983746], [23.727896, 37.983646], [23.72789, 37.983616], [23.727825, 37.98336], [23.72773, 37.98299], [23.727671, 37.982742], [23.727663, 37.982712]]}, "properties": {"u": 6724001742, "v": 97846091, "highway": "tertiary", "lanes": "2", "maxspeed": "", "name": "406", "oneway": "no", "surface": "asphalt", "length": 117.185}}, {"type": "Feature", "geometry": {"type": "LineString", "coordinates": [[23.737209, 37.978046], [23.737503, 37.977699], [23.737526, 37.977673]]}, "properties": {"u": 250691739, "v": 250691794, "highway": "secondary", "lanes": "4", "maxspeed": "", "name": "407", "oneway": "yes", "surface": "asphalt", "length": 49.981}}, {"type": "Feature", "geometry": {"type": "LineString", "coordinates": [[23.731256, 37.991817], [23.73123, 37.991703]]}, "properties": {"u": 6910572379, "v": 5581434215, "highway": "primary", "lanes": "5", "maxspeed": "", "name": "408", "oneway": "yes", "surface": "asphalt", "length": 12.939}}, {"type": "Feature", "geometry": {"type": "LineString", "coordinates": [[23.738256, 37.978592], [23.737961, 37.978954]]}, "properties": {"u": 250691741, "v": 300401174, "highway": "secondary", "lanes": "2", "maxspeed": "", "name": "409", "oneway": "yes", "surface": "asphalt", "length": 47.909}}, {"type": "Feature", "geometry": {"type": "LineString", "coordinates": [[23.738256, 37.978592], [23.738245, 37.978584], [23.737717, 37.97831]]}, "properties": {"u": 250691741, "v": 300401270, "highway": "residential", "lanes": "", "maxspeed": "", "name": "410", "oneway": "yes", "surface": "asphalt", "length": 56.786}}, {"type": "Feature", "geometry": {"type": "LineString", "coordinates": [[23.73712, 37.977375], [23.737007, 37.977402], [23.736971, 37.977406]]}, "properties": {"u": 4040706197, "v": 250691717, "highway": "service", "lanes": "", "maxspeed": "", "name": "411", "oneway": "", "surface": "asphalt", "length": 13.506}}, {"type": "Feature", "geometry": {"type": "LineString", "coordinates": [[23.735611, 37.989185], [23.735979, 37.989128]]}, "properties": {"u": 97792969, "v": 97792973, "highway": "residential", "lanes": "", "maxspeed": "", "name": "412", "oneway": "yes", "surface": "asphalt", "length": 32.882}}, {"type": "Feature", "geometry": {"type": "LineString", "coordinates": [[23.735611, 37.989185], [23.73572, 37.989628]]}, "properties": {"u": 97792969, "v": 1303525204, "highway": "residential", "lanes": "", "maxspeed": "", "name": "413", "oneway": "yes", "surface": "asphalt", "length": 50.118}}, {"type": "Feature", "geometry": {"type": "LineString", "coordinates": [[23.73572, 37.989628], [23.73567, 37.989693], [23.73538, 37.990074]]}, "properties": {"u": 1303525204, "v": 250713331, "highway": "residential", "lanes": "", "maxspeed": "", "name": "414", "oneway": "yes", "surface": "asphalt", "length": 57.863}}, {"type": "Feature", "geometry": {"type": "LineString", "coordinates": [[23.73538, 37.990074], [23.735184, 37.98925]]}, "properties": {"u": 250713331, "v": 97788855, "highway": "tertiary", "lanes": "1", "maxspeed": "", "name": "415", "oneway": "yes", "surface": "asphalt", "length": 93.225}}, {"type": "Feature", "geometry": {"type": "LineString", "coordinates": [[23.735392, 37.99012], [23.73538, 37.990074]]}, "properties": {"u": 250713331, "v": 569850326, "highway": "tertiary", "lanes": "1", "maxspeed": "", "name": "416", "oneway": "", "surface": "asphalt", "length": 5.188}}, {"type": "Feature", "geometry": {"type": "LineString", "coordinates": [[23.725786, 37.987823], [23.725836, 37.987785]]}, "properties": {"u": 5370319352, "v": 5370319353, "highway": "service", "lanes": "", "maxspeed": "", "name": "417", "oneway": "", "surface": "", "length": 6.073}}, {"type": "Feature", "geometry": {"type": "LineString", "coordinates": [[23.73123, 37.991703], [23.731379, 37.99168]]}, "properties": {"u": 5581434215, "v": 5921003579, "highway": "primary", "lanes": "4", "maxspeed": "50", "name": "418", "oneway": "yes", "surface": "asphalt", "length": 13.284}}, {"type": "Feature", "geometry": {"type": "LineString", "coordinates": [[23.73123, 37.991703], [23.731213, 37.991646], [23.731129, 37.99131]]}, "properties": {"u": 5581434215, "v": 97788477, "highway": "primary", "lanes": "['4', '5']", "maxspeed": "", "name": "419", "oneway": "yes", "surface": "asphalt", "length": 44.583}}, {"type": "Feature", "geometry": {"type": "LineString", "coordinates": [[23.733288, 37.984734], [23.732821, 37.985317]]}, "properties": {"u": 250700339, "v": 250706959, "highway": "secondary", "lanes": "2", "maxspeed": "", "name": "420", "oneway": "yes", "surface": "asphalt", "length": 76.741}}, {"type": "Feature", "geometry": {"type": "LineString", "coordinates": [[23.733288, 37.984734], [23.733297, 37.984737], [23.733925, 37.985062]]}, "properties": {"u": 250700339, "v": 364104830, "highway": "residential", "lanes": "1", "maxspeed": "", "name": "421", "oneway": "yes", "surface": "asphalt", "length": 66.698}}, {"type": "Feature", "geometry": {"type": "LineString", "coordinates": [[23.735184, 37.98925], [23.735611, 37.989185]]}, "properties": {"u": 97788855, "v": 97792969, "highway": "residential", "lanes": "", "maxspeed": "", "name": "422", "oneway": "yes", "surface": "asphalt", "length": 38.13}}, {"type": "Feature", "geometry": {"type": "LineString", "coordinates": [[23.723478, 37.986885], [23.724598, 37.986721]]}, "properties": {"u": 95663419, "v": 98303817, "highway": "residential", "lanes": "1", "maxspeed": "", "name": "423", "oneway": "yes", "surface": "asphalt", "length": 99.802}}, {"type": "Feature", "geometry": {"type": "LineString", "coordinates": [[23.723478, 37.986885], [23.723495, 37.986938], [23.723623, 37.987331], [23.723679, 37.987526]]}, "properties": {"u": 95663419, "v": 7248584892, "highway": "residential", "lanes": "", "maxspeed": "30", "name": "424", "oneway": "yes", "surface": "asphalt", "length": 73.398}}, {"type": "Feature", "geometry": {"type": "LineString", "coordinates": [[23.723679, 37.987526], [23.722961, 37.987648]]}, "properties": {"u": 7248584892, "v": 633562904, "highway": "residential", "lanes": "", "maxspeed": "30", "name": "425", "oneway": "yes", "surface": "asphalt", "length": 64.3}}, {"type": "Feature", "geometry": {"type": "LineString", "coordinates": [[23.723679, 37.987526], [23.723797, 37.987942], [23.723919, 37.988361]]}, "properties": {"u": 7248584892, "v": 97834909, "highway": "residential", "lanes": "", "maxspeed": "['30', None]", "name": "426", "oneway": "yes", "surface": "asphalt", "length": 95.252}}, {"type": "Feature", "geometry": {"type": "LineString", "coordinates": [[23.735559, 37.983437], [23.73588, 37.983067], [23.735905, 37.983036], [23.735954, 37.982975], [23.73597, 37.98296], [23.735893, 37.982922], [23.735462, 37.982708], [23.735109, 37.982533], [23.735094, 37.982525], [23.735083, 37.982517]]}, "properties": {"u": 250699973, "v": 10134034285, "highway": "tertiary", "lanes": "['2', '1']", "maxspeed": "", "name": "427", "oneway": "yes", "surface": "asphalt", "length": 156.076}}, {"type": "Feature", "geometry": {"type": "LineString", "coordinates": [[23.737724, 37.97596], [23.737617, 37.975975]]}, "properties": {"u": 7878279520, "v": 6220792258, "highway": "primary", "lanes": "6", "maxspeed": "", "name": "428", "oneway": "no", "surface": "asphalt", "length": 9.515}}, {"type": "Feature", "geometry": {"type": "LineString", "coordinates": [[23.737888, 37.975941], [23.737724, 37.97596]]}, "properties": {"u": 7878279520, "v": 952120184, "highway": "primary", "lanes": "6", "maxspeed": "", "name": "429", "oneway": "no", "surface": "asphalt", "length": 14.533}}, {"type": "Feature", "geometry": {"type": "LineString", "coordinates": [[23.737724, 37.97596], [23.737717, 37.975914], [23.737715, 37.975891], [23.737707, 37.975842], [23.737694, 37.97578]]}, "properties": {"u": 7878279520, "v": 7878315704, "highway": "service", "lanes": "", "maxspeed": "", "name": "430", "oneway": "", "surface": "asphalt", "length": 20.127}}, {"type": "Feature", "geometry": {"type": "LineString", "coordinates": [[23.737694, 37.97578], [23.737707, 37.975842], [23.737715, 37.975891], [23.737717, 37.975914], [23.737724, 37.97596]]}, "properties": {"u": 7878315704, "v": 7878279520, "highway": "service", "lanes": "", "maxspeed": "", "name": "431", "oneway": "", "surface": "asphalt", "length": 20.127}}, {"type": "Feature", "geometry": {"type": "LineString", "coordinates": [[23.737888, 37.975941], [23.737724, 37.97596]]}, "properties": {"u": 952120184, "v": 7878279520, "highway": "primary", "lanes": "6", "maxspeed": "", "name": "432", "oneway": "no", "surface": "asphalt", "length": 14.533}}, {"type": "Feature", "geometry": {"type": "LineString", "coordinates": [[23.734619, 37.990906], [23.734426, 37.990936]]}, "properties": {"u": 9714370547, "v": 9714370549, "highway": "service", "lanes": "", "maxspeed": "", "name": "433", "oneway": "", "surface": "", "length": 17.22}}, {"type": "Feature", "geometry": {"type": "LineString", "coordinates": [[23.725666, 37.98494], [23.726173, 37.984859]]}, "properties": {"u": 11256819882, "v": 11256819883, "highway": "residential", "lanes": "", "maxspeed": "", "name": "434", "oneway": "", "surface": "", "length": 45.349}}, {"type": "Feature", "geometry": {"type": "LineString", "coordinates": [[23.726143, 37.985123], [23.726093, 37.984924], [23.726944, 37.984783]]}, "properties": {"u": 11256886099, "v": 11256819886, "highway": "service", "lanes": "", "maxspeed": "", "name": "435", "oneway": "", "surface": "", "length": 98.669}}, {"type": "Feature", "geometry": {"type": "LineString", "coordinates": [[23.727093, 37.983212], [23.726902, 37.98349], [23.726868, 37.98354]]}, "properties": {"u": 11271426330, "v": 11271426328, "highway": "service", "lanes": "", "maxspeed": "", "name": "436", "oneway": "", "surface": "", "length": 41.471}}]}